{
  "AE": [
    {
      "filter": "highway=service",
      "name": "service road",
      "tags": {
        "maxspeed": "25"
      }
    },
    {
      "filter": "{is_urban} and (oneway!~^yes|-1$ or dual_carriageway=no)",
      "name": "urban single carriageway",
      "tags": {
        "maxspeed": "40"
      }
    },
    {
      "filter": "{is_urban} and oneway~^yes|-1$ and dual_carriageway!=no",
      "name": "urban dual carriageway",
      "tags": {
        "maxspeed": "60"
      }
    },
    {
      "tags": {
        "maxspeed": "80"
      }
    },
    {
      "filter": "highway~^motorway(_link)?$",
      "name": "motorway",
      "tags": {
        "maxspeed": "80"
      }
    }
  ],
  "AG": [
    {
      "filter": "{is_urban}",
      "name": "urban",
      "tags": {
        "maxspeed": "15 mph"
      }
    },
    {
      "tags": {
        "maxspeed": "25 mph"
      }
    }
  ],
  "AL": [
    {
      "filter": "{is_urban}",
      "name": "urban",
      "tags": {
        "maxspeed": "30",
        "maxspeed:bus:conditional": "35 @ (weightrating>8)",
        "maxspeed:hgv:conditional": "35 @ (trailer); 35 @ (articulated)"
      }
    },
    {
      "tags": {
        "maxspeed": "50",
        "maxspeed:bus:conditional": "70 @ (weightrating>8)",
        "maxspeed:hgv:conditional": "70 @ (trailer); 70 @ (articulated); 60 @ (weightrating>12)",
        "maxspeed:truck_bus:conditional": "70 @ (weightrating>5)"
      }
    },
    {
      "filter": "motorroad=yes",
      "name": "motorroad",
      "tags": {
        "maxspeed": "50",
        "maxspeed:bus:conditional": "70 @ (weightrating>8)",
        "maxspeed:hgv:conditional": "70 @ (trailer); 70 @ (articulated); 60 @ (weightrating>12)",
        "maxspeed:truck_bus:conditional": "70 @ (weightrating>5)"
      }
    },
    {
      "filter": "highway~^motorway(_link)?$",
      "name": "motorway",
      "tags": {
        "maxspeed": "50",
        "maxspeed:bus:conditional": "90 @ (weightrating>8)",
        "maxspeed:hgv:conditional": "80 @ (trailer); 80 @ (articulated); 80 @ (weightrating>12)",
        "maxspeed:truck_bus:conditional": "80 @ (weightrating>5)"
      }
    }
  ],
  "AO": [
    {
      "filter": "{is_urban}",
      "name": "urban",
      "tags": {
        "maxspeed": "50",
        "maxspeed:bus:conditional": "40 @ (trailer)",
        "maxspeed:conditional": "50 @ (trailer)",
        "maxspeed:goods:conditional": "50 @ (trailer)",
        "maxspeed:hgv:conditional": "40 @ (trailer)"
      }
    },
    {
      "tags": {
        "maxspeed": "70",
        "maxspeed:bus:conditional": "70 @ (trailer)",
        "maxspeed:conditional": "70 @ (trailer)",
        "maxspeed:goods:conditional": "70 @ (trailer)",
        "maxspeed:hgv:conditional": "70 @ (trailer)"
      }
    },
    {
      "filter": "motorroad=yes",
      "name": "motorroad",
      "tags": {
        "maxspeed": "80",
        "maxspeed:bus:conditional": "80 @ (trailer)",
        "maxspeed:conditional": "80 @ (trailer)",
        "maxspeed:goods:conditional": "80 @ (trailer)",
        "maxspeed:hgv:conditional": "70 @ (trailer)"
      }
    },
    {
      "filter": "highway~^motorway(_link)?$",
      "name": "motorway",
      "tags": {
        "maxspeed": "100",
        "maxspeed:bus:conditional": "90 @ (trailer)",
        "maxspeed:conditional": "100 @ (trailer)",
        "maxspeed:goods:conditional": "90 @ (trailer)",
        "maxspeed:hgv:conditional": "80 @ (trailer)"
      }
    }
  ],
  "AR": [
    {
      "filter": "{is_urban}",
      "name": "urban",
      "tags": {
        "maxspeed": "40"
      }
    },
    {
      "fuzzy_filter": "{is_urban} and highway~^secondary(_link)?|primary(_link)?$",
      "name": "Argentinia: Avenida",
      "tags": {
        "maxspeed": "60"
      }
    },
    {
      "tags": {
        "maxspeed": "90",
        "maxspeed:conditional": "80 @ (caravan)"
      }
    },
    {
      "filter": "oneway~^yes|-1$ and dual_carriageway!=no",
      "name": "dual carriageway",
      "tags": {
        "maxspeed": "90",
        "maxspeed:conditional": "80 @ (caravan)"
      }
    },
    {
      "filter": "highway~^motorway(_link)?$",
      "name": "motorway",
      "tags": {
        "maxspeed": "100",
        "maxspeed:conditional": "80 @ (caravan)"
      }
    }
  ],
  "AS": [
    {
      "filter": "{is_urban}",
      "name": "urban",
      "tags": {
        "maxspeed": "15 mph"
      }
    },
    {
      "tags": {
        "maxspeed": "25 mph"
      }
    }
  ],
  "AT": [
    {
      "filter": "highway=pedestrian",
      "name": "pedestrian zone",
      "tags": {
        "maxspeed": "walk"
      }
    },
    {
      "filter": "highway=living_street or living_street=yes",
      "name": "living street",
      "tags": {
        "maxspeed": "walk"
      }
    },
    {
      "filter": "bicycle_road=yes or cyclestreet=yes",
      "name": "bicycle road",
      "tags": {
        "maxspeed": "30"
      }
    },
    {
      "filter": "{is_urban}",
      "name": "urban",
      "tags": {
        "maxspeed": "50"
      }
    },
    {
      "tags": {
        "maxspeed": "70",
        "maxspeed:bus:conditional": "70 @ (articulated)",
        "maxspeed:conditional": "100 @ (trailer); 80 @ (trailerweight>0.75); 70 @ (weightrating>3.5)"
      }
    },
    {
      "filter": "motorroad=yes",
      "name": "motorroad",
      "tags": {
        "maxspeed": "80",
        "maxspeed:bus:conditional": "80 @ (articulated)",
        "maxspeed:conditional": "100 @ (trailer); 80 @ (weightrating>3.5)"
      }
    },
    {
      "filter": "highway~^motorway(_link)?$",
      "name": "motorway",
      "tags": {
        "maxspeed": "80",
        "maxspeed:bus:conditional": "80 @ (articulated)",
        "maxspeed:conditional": "100 @ (trailer); 80 @ (weightrating>3.5)"
      }
    }
  ],
  "AU": [
    {
      "filter": "highway=living_street or living_street=yes",
      "name": "living street",
      "tags": {
        "maxspeed": "10"
      }
    },
    {
      "filter": "{is_urban}",
      "name": "urban",
      "tags": {
        "maxspeed": "50"
      }
    }
  ],
  "AU-ACT": [
    {
      "tags": {
        "maxspeed": "100",
        "maxspeed:bus:conditional": "100 @ (weightrating>5)",
        "maxspeed:conditional": "100 @ (weightrating>12)"
      }
    }
  ],
  "AU-NSW": [
    {
      "tags": {
        "maxspeed": "100",
        "maxspeed:conditional": "100 @ (weightrating>4.5)"
      }
    }
  ],
  "AU-NT": [
    {
      "filter": "{is_urban}",
      "name": "urban",
      "tags": {
        "maxspeed": "60"
      }
    },
    {
      "tags": {
        "maxspeed": "110",
        "maxspeed:bus:conditional": "100 @ (weightrating>5)",
        "maxspeed:conditional": "100 @ (weightrating>12)"
      }
    }
  ],
  "AU-QLD": [
    {
      "tags": {
        "maxspeed": "100",
        "maxspeed:bus:conditional": "100 @ (weightrating>5)",
        "maxspeed:conditional": "100 @ (weightrating>12)",
        "maxspeed:hgv:conditional": "90 @ (trailer)"
      }
    }
  ],
  "AU-SA": [
    {
      "tags": {
        "maxspeed": "100",
        "maxspeed:bus:conditional": "100 @ (weightrating>5)",
        "maxspeed:conditional": "100 @ (weightrating>12)"
      }
    }
  ],
  "AU-TAS": [
    {
      "tags": {
        "maxspeed": "80"
      }
    },
    {
      "filter": "surface~^asphalt|concrete$",
      "name": "road with asphalt or concrete surface",
      "tags": {
        "maxspeed": "100",
        "maxspeed:bus:conditional": "100 @ (weightrating>5)",
        "maxspeed:conditional": "100 @ (weightrating>12)"
      }
    }
  ],
  "AU-VIC": [
    {
      "tags": {
        "maxspeed": "100",
        "maxspeed:bus:conditional": "100 @ (weightrating>5)",
        "maxspeed:conditional": "100 @ (weightrating>12)",
        "maxspeed:hgv:conditional": "100 @ (articulated AND weightrating>22)"
      }
    }
  ],
  "AU-WA": [
    {
      "tags": {
        "maxspeed": "110",
        "maxspeed:bus:conditional": "100 @ (weightrating>5)",
        "maxspeed:conditional": "100 @ (weightrating>12); 100 @ (trailer)"
      }
    }
  ],
  "AZ": [
    {
      "filter": "highway=service",
      "name": "service road",
      "tags": {
        "maxspeed": "20"
      }
    },
    {
      "filter": "highway=living_street or living_street=yes",
      "name": "living street",
      "tags": {
        "maxspeed": "20"
      }
    },
    {
      "filter": "{is_urban}",
      "name": "urban",
      "tags": {
        "maxspeed": "50"
      }
    },
    {
      "tags": {
        "maxspeed": "90"
      }
    },
    {
      "filter": "highway~^motorway(_link)?$",
      "name": "motorway",
      "tags": {
        "maxspeed": "90"
      }
    }
  ],
  "BA": [
    {
      "filter": "highway=living_street or living_street=yes",
      "name": "living street",
      "tags": {
        "maxspeed": "walk"
      }
    },
    {
      "filter": "{is_urban}",
      "name": "urban",
      "tags": {
        "maxspeed": "60"
      }
    },
    {
      "tags": {
        "maxspeed": "80",
        "maxspeed:bus:conditional": "70 @ (articulated)",
        "maxspeed:conditional": "80 @ (trailer)",
        "maxspeed:hgv:conditional": "70 @ (weightrating>7.5); 70 @ (trailer)"
      }
    },
    {
      "filter": "highway~^trunk(_link)?$",
      "name": "trunk",
      "tags": {
        "maxspeed": "80",
        "maxspeed:bus:conditional": "70 @ (articulated)",
        "maxspeed:conditional": "80 @ (trailer)",
        "maxspeed:hgv:conditional": "70 @ (weightrating>7.5); 70 @ (trailer)"
      }
    },
    {
      "filter": "highway~^motorway(_link)?$",
      "name": "motorway",
      "tags": {
        "maxspeed": "80",
        "maxspeed:bus:conditional": "70 @ (articulated)",
        "maxspeed:conditional": "80 @ (trailer)",
        "maxspeed:hgv:conditional": "70 @ (weightrating>7.5); 70 @ (trailer)"
      }
    }
  ],
  "BE": [
    {
      "filter": "highway=pedestrian",
      "name": "pedestrian zone",
      "tags": {
        "maxspeed": "walk"
      }
    },
    {
      "filter": "highway=living_street or living_street=yes",
      "name": "living street",
      "tags": {
        "maxspeed": "20"
      }
    },
    {
      "filter": "bicycle_road=yes or cyclestreet=yes",
      "name": "bicycle road",
      "tags": {
        "maxspeed": "30"
      }
    },
    {
      "filter": "{is_urban}",
      "name": "urban",
      "tags": {
        "maxspeed": "50"
      }
    },
    {
      "tags": {
        "maxspeed": "75",
        "maxspeed:conditional": "60 @ (weightrating>7.5)"
      }
    },
    {
      "filter": "oneway!~^yes|-1$ and lanes>=4",
      "name": "single carriageway with 2 or more lanes in each direction",
      "tags": {
        "maxspeed": "90"
      }
    },
    {
      "filter": "oneway~^yes|-1$ and lanes>=2 and dual_carriageway!=no",
      "name": "dual carriageway with 2 or more lanes in each direction",
      "tags": {
        "maxspeed": "100",
        "maxspeed:conditional": "90 @ (weightrating>3.5)"
      }
    },
    {
      "filter": "highway~^motorway(_link)?$",
      "name": "motorway",
      "tags": {
        "maxspeed": "100",
        "maxspeed:conditional": "90 @ (weightrating>3.5)"
      }
    }
  ],
  "BE-VLG": [
    {
      "tags": {
        "maxspeed": "70",
        "maxspeed:conditional": "60 @ (weightrating>7.5)"
      }
    },
    {
      "filter": "oneway!~^yes|-1$ and lanes>=4",
      "name": "single carriageway with 2 or more lanes in each direction",
      "tags": {
        "maxspeed": "70",
        "maxspeed:conditional": "60 @ (weightrating>7.5)"
      }
    }
  ],
  "BG": [
    {
      "filter": "highway=living_street or living_street=yes",
      "name": "living street",
      "tags": {
        "maxspeed": "20"
      }
    },
    {
      "filter": "{is_urban}",
      "name": "urban",
      "tags": {
        "maxspeed": "50",
        "maxspeed:conditional": "50 @ (trailer)"
      }
    },
    {
      "tags": {
        "maxspeed": "80",
        "maxspeed:conditional": "70 @ (trailer)"
      }
    },
    {
      "filter": "highway~^trunk(_link)?$",
      "name": "trunk",
      "tags": {
        "maxspeed": "90",
        "maxspeed:conditional": "90 @ (trailer)"
      }
    },
    {
      "filter": "highway~^motorway(_link)?$",
      "name": "motorway",
      "tags": {
        "maxspeed": "100",
        "maxspeed:conditional": "100 @ (trailer)"
      }
    }
  ],
  "BN": [
    {
      "tags": {
        "maxspeed": "80",
        "maxspeed:bus:conditional": "75 @ (trailer)",
        "maxspeed:conditional": "75 @ (trailer)",
        "maxspeed:goods:conditional": "75 @ (weightrating>7.5); 75 @ (trailer); 75 @ (articulated)"
      }
    }
  ],
  "BO": [
    {
      "filter": "{is_school_zone}",
      "name": "school zone",
      "tags": {
        "maxspeed": "10"
      }
    },
    {
      "filter": "highway=pedestrian",
      "name": "pedestrian zone",
      "tags": {
        "maxspeed": "20"
      }
    },
    {
      "filter": "{is_urban}",
      "name": "urban",
      "tags": {
        "maxspeed": "40"
      }
    },
    {
      "filter": "surface!~^asphalt|concrete$",
      "name": "road without asphalt or concrete surface",
      "tags": {
        "maxspeed": "70"
      }
    },
    {
      "tags": {
        "maxspeed": "80"
      }
    }
  ],
  "BR": [
    {
      "filter": "{is_urban} and highway~^service|residential|unclassified$",
      "name": "Brasil: Via local",
      "tags": {
        "maxspeed": "30"
      }
    },
    {
      "filter": "{is_urban} and highway~^secondary(_link)?|tertiary(_link?)$",
      "name": "Brasil: Via coletora",
      "tags": {
        "maxspeed": "40"
      }
    },
    {
      "filter": "{is_urban} and highway~^primary(_link)?$ and shoulder!~^yes|both$",
      "name": "Brasil: Via arterial",
      "tags": {
        "maxspeed": "60"
      }
    },
    {
      "filter": "{is_urban} and (highway~^primary(_link)?$ and shoulder~yes|both or highway~^trunk|motorway$)",
      "name": "Brasil: Via de tr\u00e2nsito r\u00e1pido",
      "tags": {
        "maxspeed": "80"
      }
    },
    {
      "tags": {
        "maxspeed": "60"
      }
    },
    {
      "filter": "surface~^asphalt|concrete$",
      "name": "road with asphalt or concrete surface",
      "tags": {
        "maxspeed": "90"
      }
    },
    {
      "filter": "oneway~^yes|-1$ and dual_carriageway!=no",
      "name": "dual carriageway",
      "tags": {
        "maxspeed": "90"
      }
    }
  ],
  "BW": [
    {
      "filter": "highway=living_street or living_street=yes",
      "name": "living street",
      "tags": {
        "maxspeed": "30"
      }
    },
    {
      "filter": "{is_urban}",
      "name": "urban",
      "tags": {
        "maxspeed": "60"
      }
    },
    {
      "tags": {
        "maxspeed": "80",
        "maxspeed:bus:conditional": "100 @ (length>10); 100 @ (seats>=15); 80 @ (trailer); 80 @ (articulated)",
        "maxspeed:conditional": "80 @ (trailer); 80 @ (weightrating>3.5)",
        "maxspeed:motorcycle:conditional": "60 @ (trailer)"
      }
    }
  ],
  "BY": [
    {
      "filter": "highway=living_street or living_street=yes",
      "name": "living street",
      "tags": {
        "maxspeed": "20"
      }
    },
    {
      "filter": "highway=pedestrian",
      "name": "pedestrian zone",
      "tags": {
        "maxspeed": "20"
      }
    },
    {
      "filter": "{is_urban}",
      "name": "urban",
      "tags": {
        "maxspeed": "60"
      }
    },
    {
      "tags": {
        "maxspeed": "90",
        "maxspeed:conditional": "70 @ (trailer)"
      }
    },
    {
      "filter": "highway~^motorway(_link)?$",
      "name": "motorway",
      "tags": {
        "maxspeed": "90",
        "maxspeed:conditional": "90 @ (trailer)"
      }
    }
  ],
  "CA-AB": [
    {
      "filter": "{is_urban}",
      "name": "urban",
      "tags": {
        "maxspeed": "50"
      }
    },
    {
      "filter": "{is_urban} and ref",
      "name": "Alberta urban provincial highway",
      "tags": {
        "maxspeed": "80"
      }
    },
    {
      "tags": {
        "maxspeed": "80"
      }
    },
    {
      "filter": "ref",
      "name": "Alberta provincial highway",
      "tags": {
        "maxspeed": "100"
      }
    }
  ],
  "CA-BC": [
    {
      "filter": "{is_urban}",
      "name": "urban",
      "tags": {
        "maxspeed": "50"
      }
    },
    {
      "tags": {
        "maxspeed": "80"
      }
    }
  ],
  "CA-MB": [
    {
      "filter": "{is_urban}",
      "name": "urban",
      "tags": {
        "maxspeed": "50"
      }
    },
    {
      "tags": {
        "maxspeed": "90"
      }
    }
  ],
  "CA-NB": [
    {
      "filter": "{is_urban}",
      "name": "urban",
      "tags": {
        "maxspeed": "50"
      }
    },
    {
      "tags": {
        "maxspeed": "80"
      }
    }
  ],
  "CA-NL": [
    {
      "filter": "{is_urban}",
      "name": "urban",
      "tags": {
        "maxspeed": "50"
      }
    },
    {
      "filter": "surface!~^asphalt|concrete$",
      "name": "road without asphalt or concrete surface",
      "tags": {
        "maxspeed": "60"
      }
    },
    {
      "tags": {
        "maxspeed": "80"
      }
    },
    {
      "filter": "ref=1",
      "name": "Newfoundland and Labrador: Trans-Canada highway",
      "tags": {
        "maxspeed": "100"
      }
    }
  ],
  "CA-NS": [
    {
      "filter": "{is_business_district}",
      "name": "business district",
      "tags": {
        "maxspeed": "50"
      }
    },
    {
      "filter": "{is_residential_district}",
      "name": "residence district",
      "tags": {
        "maxspeed": "50"
      }
    },
    {
      "tags": {
        "maxspeed": "80"
      }
    }
  ],
  "CA-NT": [
    {
      "filter": "{is_urban}",
      "name": "urban",
      "tags": {
        "maxspeed": "50"
      }
    },
    {
      "tags": {
        "maxspeed": "90"
      }
    }
  ],
  "CA-NU": [
    {
      "filter": "{is_urban}",
      "name": "urban",
      "tags": {
        "maxspeed": "50"
      }
    },
    {
      "tags": {
        "maxspeed": "90"
      }
    }
  ],
  "CA-ON": [
    {
      "filter": "{is_urban}",
      "name": "urban",
      "tags": {
        "maxspeed": "50"
      }
    },
    {
      "tags": {
        "maxspeed": "80"
      }
    }
  ],
  "CA-PE": [
    {
      "filter": "{is_urban}",
      "name": "urban",
      "tags": {
        "maxspeed": "50"
      }
    },
    {
      "filter": "{is_business_district}",
      "name": "business district",
      "tags": {
        "maxspeed": "60"
      }
    },
    {
      "filter": "surface!~^asphalt|concrete$",
      "name": "road without asphalt or concrete surface",
      "tags": {
        "maxspeed": "80"
      }
    },
    {
      "tags": {
        "maxspeed": "80"
      }
    }
  ],
  "CA-QC": [
    {
      "filter": "{is_urban}",
      "name": "urban",
      "tags": {
        "maxspeed": "50"
      }
    },
    {
      "filter": "surface!~^asphalt|concrete$",
      "name": "road without asphalt or concrete surface",
      "tags": {
        "maxspeed": "70"
      }
    },
    {
      "tags": {
        "maxspeed": "90"
      }
    },
    {
      "filter": "highway~^motorway(_link)?$",
      "name": "motorway",
      "tags": {
        "maxspeed": "100"
      }
    }
  ],
  "CA-SK": [
    {
      "tags": {
        "maxspeed": "80"
      }
    }
  ],
  "CA-YT": [
    {
      "tags": {
        "maxspeed": "50"
      }
    }
  ],
  "CD": [
    {
      "filter": "{is_urban}",
      "name": "urban",
      "tags": {
        "maxspeed": "60"
      }
    },
    {
      "tags": {
        "maxspeed": "75"
      }
    },
    {
      "filter": "oneway~^yes|-1$ and lanes>=2 and dual_carriageway!=no",
      "name": "dual carriageway with 2 or more lanes in each direction",
      "tags": {
        "maxspeed": "90",
        "maxspeed:conditional": "90 @ (weightrating>7.5)"
      }
    },
    {
      "filter": "highway~^motorway(_link)?$",
      "name": "motorway",
      "tags": {
        "maxspeed": "90",
        "maxspeed:conditional": "90 @ (weightrating>7.5)"
      }
    }
  ],
  "CF": [
    {
      "filter": "{is_urban}",
      "name": "urban",
      "tags": {
        "maxspeed": "60",
        "maxspeed:conditional": "40 @ (weightrating>3.5)"
      }
    },
    {
      "tags": {
        "maxspeed": "90",
        "maxspeed:bus:conditional": "60 @ (weightrating>12.5); 60 @ (trailerweight>0.75)",
        "maxspeed:conditional": "90 @ (weightrating>3.5); 60 @ (weightrating>12.5); 60 @ (trailerweight>0.75)"
      }
    }
  ],
  "CG": [
    {
      "filter": "{is_urban}",
      "name": "urban",
      "tags": {
        "maxspeed": "60",
        "maxspeed:conditional": "40 @ (weightrating>3.5)"
      }
    },
    {
      "tags": {
        "maxspeed": "90",
        "maxspeed:bus:conditional": "60 @ (weightrating>12.5); 60 @ (trailerweight>0.75)",
        "maxspeed:conditional": "90 @ (weightrating>3.5); 60 @ (weightrating>12.5); 60 @ (trailerweight>0.75)"
      }
    }
  ],
  "CH": [
    {
      "filter": "highway=pedestrian",
      "name": "pedestrian zone",
      "tags": {
        "maxspeed": "walk"
      }
    },
    {
      "filter": "highway=living_street or living_street=yes",
      "name": "living street",
      "tags": {
        "maxspeed": "20"
      }
    },
    {
      "filter": "{is_urban}",
      "name": "urban",
      "tags": {
        "maxspeed": "50"
      }
    },
    {
      "tags": {
        "maxspeed": "80",
        "maxspeed:conditional": "80 @ (trailer)",
        "maxspeed:hgv:conditional": "80 @ (trailer); 80 @ (articulated)"
      }
    },
    {
      "filter": "motorroad=yes",
      "name": "motorroad",
      "tags": {
        "maxspeed": "100",
        "maxspeed:bus:conditional": "80 @ (trailer)",
        "maxspeed:conditional": "80 @ (trailer)",
        "maxspeed:hgv:conditional": "80 @ (trailer); 80 @ (articulated)"
      }
    },
    {
      "filter": "highway~^motorway(_link)?$",
      "name": "motorway",
      "tags": {
        "maxspeed": "100",
        "maxspeed:bus:conditional": "80 @ (trailer)",
        "maxspeed:conditional": "80 @ (trailer)",
        "maxspeed:hgv:conditional": "80 @ (trailer); 80 @ (articulated)"
      }
    }
  ],
  "CL": [
    {
      "filter": "{is_urban}",
      "name": "urban",
      "tags": {
        "maxspeed": "50"
      }
    },
    {
      "tags": {
        "maxspeed": "90",
        "maxspeed:hgv:conditional": "90 @ (weightrating>3.86)"
      }
    },
    {
      "filter": "(oneway~^yes|-1$ and lanes>=2) or lanes>=4",
      "name": "road with 2 or more lanes in each direction",
      "tags": {
        "maxspeed": "90",
        "maxspeed:hgv:conditional": "90 @ (weightrating>3.86)"
      }
    }
  ],
  "CM": [
    {
      "filter": "{is_urban}",
      "name": "urban",
      "tags": {
        "maxspeed": "60",
        "maxspeed:conditional": "40 @ (weightrating>3.5)"
      }
    },
    {
      "tags": {
        "maxspeed": "90",
        "maxspeed:bus:conditional": "60 @ (weightrating>12.5); 60 @ (trailerweight>0.75)",
        "maxspeed:conditional": "90 @ (weightrating>3.5); 60 @ (weightrating>12.5); 60 @ (trailerweight>0.75)"
      }
    }
  ],
  "CN": [
    {
      "filter": "{is_urban} and (lanes<2 or lane_markings=no)",
      "name": "urban road without center line",
      "tags": {
        "maxspeed": "30"
      }
    },
    {
      "filter": "lanes<2 or lane_markings=no",
      "name": "road without center line",
      "tags": {
        "maxspeed": "40"
      }
    },
    {
      "filter": "{is_urban}",
      "name": "urban",
      "tags": {
        "maxspeed": "50"
      }
    },
    {
      "tags": {
        "maxspeed": "70"
      }
    },
    {
      "filter": "highway~^motorway(_link)?$",
      "name": "motorway",
      "tags": {
        "maxspeed": "80"
      }
    }
  ],
  "CO": [
    {
      "filter": "{is_residential_district}",
      "name": "residence district",
      "tags": {
        "maxspeed": "30"
      }
    },
    {
      "filter": "{is_urban}",
      "name": "urban",
      "tags": {
        "maxspeed": "60"
      }
    },
    {
      "tags": {
        "maxspeed": "80"
      }
    }
  ],
  "CR": [
    {
      "filter": "junction=roundabout",
      "name": "roundabout",
      "tags": {
        "maxspeed": "30"
      }
    },
    {
      "filter": "{is_urban}",
      "name": "urban",
      "tags": {
        "maxspeed": "50"
      }
    },
    {
      "tags": {
        "maxspeed": "60"
      }
    }
  ],
  "CU": [
    {
      "filter": "highway=service",
      "name": "service road",
      "tags": {
        "maxspeed": "20"
      }
    },
    {
      "filter": "{is_school_zone} and {is_urban}",
      "name": "urban school zone",
      "tags": {
        "maxspeed": "40"
      }
    },
    {
      "filter": "{is_urban}",
      "name": "urban",
      "tags": {
        "maxspeed": "50"
      }
    },
    {
      "filter": "surface~^unpaved|ground|gravel|dirt|grass|compacted|sand|fine_gravel|earth|pebblestone|mud|clay|soil|rock$",
      "name": "unpaved road",
      "tags": {
        "maxspeed": "60"
      }
    },
    {
      "filter": "{is_school_zone} and !{is_urban}",
      "name": "rural school zone",
      "tags": {
        "maxspeed": "60"
      }
    },
    {
      "tags": {
        "maxspeed": "80",
        "maxspeed:conditional": "70 @ (trailer)",
        "maxspeed:goods:conditional": "70 @ (trailer)"
      }
    },
    {
      "filter": "highway~^motorway(_link)?$",
      "name": "motorway",
      "tags": {
        "maxspeed": "90",
        "maxspeed:conditional": "80 @ (trailer)",
        "maxspeed:goods:conditional": "80 @ (trailer)"
      }
    }
  ],
  "CZ": [
    {
      "filter": "highway=living_street or living_street=yes",
      "name": "living street",
      "tags": {
        "maxspeed": "20"
      }
    },
    {
      "filter": "highway=pedestrian",
      "name": "pedestrian zone",
      "tags": {
        "maxspeed": "20"
      }
    },
    {
      "filter": "bicycle_road=yes or cyclestreet=yes",
      "name": "bicycle road",
      "tags": {
        "maxspeed": "30"
      }
    },
    {
      "filter": "{is_urban}",
      "name": "urban",
      "tags": {
        "maxspeed": "50"
      }
    },
    {
      "tags": {
        "maxspeed": "90",
        "maxspeed:conditional": "80 @ (weightrating>3.5)"
      }
    },
    {
      "filter": "motorroad=yes",
      "name": "motorroad",
      "tags": {
        "maxspeed": "110",
        "maxspeed:conditional": "80 @ (weightrating>3.5)"
      }
    },
    {
      "filter": "highway~^motorway(_link)?$",
      "name": "motorway",
      "tags": {
        "maxspeed": "130",
        "maxspeed:conditional": "80 @ (weightrating>3.5)"
      }
    }
  ],
  "DE": [
    {
      "filter": "highway=living_street or living_street=yes",
      "name": "living street",
      "tags": {
        "maxspeed": "walk"
      }
    },
    {
      "filter": "bicycle_road=yes or cyclestreet=yes",
      "name": "bicycle road",
      "tags": {
        "maxspeed": "30"
      }
    },
    {
      "filter": "{is_urban}",
      "name": "urban",
      "tags": {
        "maxspeed": "50"
      }
    },
    {
      "tags": {
        "maxspeed": "100",
        "maxspeed:bus:conditional": "60 @ (weightrating>7.5)",
        "maxspeed:conditional": "80 @ (trailer); 80 @ (weightrating>3.5); 60 @ (weightrating>7.5)",
        "maxspeed:hgv:conditional": "60 @ (weightrating>7.5)",
        "maxspeed:moNtorhome:conditional": "60 @ (weightrating>7.5)"
      }
    },
    {
      "filter": "oneway!~^yes|-1$ and lanes>=4",
      "name": "single carriageway with 2 or more lanes in each direction",
      "tags": {
        "maxspeed": "80",
        "maxspeed:advisory": "130",
        "maxspeed:bus:conditional": "60 @ (weightrating>7.5)",
        "maxspeed:conditional": "80 @ (trailer); 80 @ (weightrating>3.5); 60 @ (weightrating>7.5)",
        "maxspeed:hgv:conditional": "60 @ (weightrating>7.5)",
        "maxspeed:moNtorhome:advisory": "130",
        "maxspeed:moNtorhome:conditional": "60 @ (weightrating>7.5)"
      }
    },
    {
      "filter": "oneway~^yes|-1$ and dual_carriageway!=no",
      "name": "dual carriageway",
      "tags": {
        "maxspeed": "80",
        "maxspeed:advisory": "130",
        "maxspeed:bus:conditional": "60 @ (weightrating>7.5)",
        "maxspeed:conditional": "80 @ (trailer); 80 @ (weightrating>3.5); 60 @ (weightrating>7.5)",
        "maxspeed:hgv:conditional": "60 @ (weightrating>7.5)",
        "maxspeed:moNtorhome:advisory": "130",
        "maxspeed:moNtorhome:conditional": "60 @ (weightrating>7.5)"
      }
    },
    {
      "filter": "motorroad=yes and oneway~^yes|-1$ and dual_carriageway!=no",
      "name": "motorroad with dual carriageway",
      "tags": {
        "maxspeed": "80",
        "maxspeed:advisory": "130",
        "maxspeed:conditional": "80 @ (trailer); 80 @ (weightrating>3.5)",
        "maxspeed:moNtorhome:advisory": "130"
      }
    },
    {
      "filter": "highway~^motorway(_link)?$",
      "name": "motorway",
      "tags": {
        "maxspeed": "80",
        "maxspeed:advisory": "130",
        "maxspeed:conditional": "80 @ (trailer); 80 @ (weightrating>3.5)",
        "maxspeed:moNtorhome:advisory": "130"
      }
    }
  ],
  "DK": [
    {
      "filter": "highway=living_street or living_street=yes",
      "name": "living street",
      "tags": {
        "maxspeed": "15"
      }
    },
    {
      "filter": "{is_urban}",
      "name": "urban",
      "tags": {
        "maxspeed": "50"
      }
    },
    {
      "tags": {
        "maxspeed": "70",
        "maxspeed:bus:conditional": "80 @ (weightrating>3.5)",
        "maxspeed:conditional": "80 @ (trailer); 70 @ (trailerweight>0.75); 70 @ (weightrating>3.5)"
      }
    },
    {
      "filter": "highway~^motorway(_link)?$",
      "name": "motorway",
      "tags": {
        "maxspeed": "80",
        "maxspeed:bus:conditional": "80 @ (weightrating>3.5)",
        "maxspeed:conditional": "100 @ (trailer); 80 @ (trailerweight>0.75); 80 @ (weightrating>3.5)"
      }
    }
  ],
  "DO": [
    {
      "filter": "{is_school_zone}",
      "name": "school zone",
      "tags": {
        "maxspeed": "25"
      }
    },
    {
      "filter": "{is_urban}",
      "name": "urban",
      "tags": {
        "maxspeed": "35"
      }
    },
    {
      "tags": {
        "maxspeed": "50",
        "maxspeed:conditional": "50 @ (weightcapacity>2); 50 @ (emptyweight>2)"
      }
    }
  ],
  "EC": [
    {
      "filter": "{is_urban}",
      "name": "urban",
      "tags": {
        "maxspeed": "40"
      }
    },
    {
      "tags": {
        "maxspeed": "70"
      }
    }
  ],
  "EE": [
    {
      "filter": "highway=living_street or living_street=yes",
      "name": "living street",
      "tags": {
        "maxspeed": "20"
      }
    },
    {
      "filter": "{is_urban}",
      "name": "urban",
      "tags": {
        "maxspeed": "50"
      }
    },
    {
      "tags": {
        "maxspeed": "60",
        "maxspeed:conditional": "50 @ (trailer)"
      }
    }
  ],
  "ES": [
    {
      "filter": "highway=living_street or living_street=yes",
      "name": "living street",
      "tags": {
        "maxspeed": "20"
      }
    },
    {
      "filter": "{is_urban}",
      "name": "urban",
      "tags": {
        "maxspeed": "40"
      }
    },
    {
      "tags": {
        "maxspeed": "70",
        "maxspeed:bus:conditional": "70 @ (trailer); 70 @ (articulated)",
        "maxspeed:conditional": "70 @ (trailer)",
        "maxspeed:goods:conditional": "70 @ (trailer)",
        "maxspeed:moNtorhome:conditional": "70 @ (trailer)"
      }
    },
    {
      "filter": "(oneway~^yes|-1$ and lanes>=2) or lanes>=4",
      "name": "road with 2 or more lanes in each direction",
      "tags": {
        "maxspeed": "70",
        "maxspeed:bus:conditional": "80 @ (trailer); 80 @ (articulated)",
        "maxspeed:conditional": "80 @ (trailer)",
        "maxspeed:goods:conditional": "80 @ (trailer)",
        "maxspeed:moNtorhome:conditional": "80 @ (trailer)"
      }
    },
    {
      "filter": "motorroad=yes",
      "name": "motorroad",
      "tags": {
        "maxspeed": "70",
        "maxspeed:bus:conditional": "80 @ (trailer); 80 @ (articulated)",
        "maxspeed:conditional": "80 @ (trailer)",
        "maxspeed:goods:conditional": "80 @ (trailer)",
        "maxspeed:moNtorhome:conditional": "80 @ (trailer)"
      }
    },
    {
      "filter": "highway~^motorway(_link)?$",
      "name": "motorway",
      "tags": {
        "maxspeed": "70",
        "maxspeed:bus:conditional": "90 @ (trailer); 90 @ (articulated); 80 @ (trailerweight>0.75)",
        "maxspeed:conditional": "90 @ (trailer); 80 @ (caravan); 80 @ (trailerweight>0.75)",
        "maxspeed:goods:conditional": "90 @ (trailer); 80 @ (trailerweight>0.75)",
        "maxspeed:hgv:conditional": "80 @ (trailerweight>0.75)",
        "maxspeed:moNtorhome:conditional": "90 @ (trailer); 80 @ (trailerweight>0.75)",
        "maxspeed:school_bus:conditional": "80 @ (trailerweight>0.75)"
      }
    }
  ],
  "FI": [
    {
      "filter": "highway=living_street or living_street=yes",
      "name": "living street",
      "tags": {
        "maxspeed": "20"
      }
    },
    {
      "filter": "highway=pedestrian",
      "name": "pedestrian zone",
      "tags": {
        "maxspeed": "20"
      }
    },
    {
      "filter": "{is_urban}",
      "name": "urban",
      "tags": {
        "maxspeed": "50"
      }
    },
    {
      "tags": {
        "maxspeed": "100",
        "maxspeed:conditional": "80 @ (trailer)"
      }
    }
  ],
  "FR": [
    {
      "filter": "highway=living_street or living_street=yes",
      "name": "living street",
      "tags": {
        "maxspeed": "20"
      }
    },
    {
      "filter": "{is_urban}",
      "name": "urban",
      "tags": {
        "maxspeed": "50"
      }
    },
    {
      "tags": {
        "maxspeed": "60",
        "maxspeed:conditional": "60 @ (trailer AND weightrating>12)",
        "maxspeed:hgv:conditional": "60 @ (trailer AND weightrating>12); 60 @ (articulated AND weightrating>12)"
      }
    },
    {
      "filter": "oneway~^yes|-1$ and lanes>=2 and dual_carriageway!=no",
      "name": "dual carriageway with 2 or more lanes in each direction",
      "tags": {
        "maxspeed": "60",
        "maxspeed:coach:conditional": "80 @ (weightrating>12)",
        "maxspeed:conditional": "100 @ (wet)",
        "maxspeed:hgv:conditional": "80 @ (weightrating>12)"
      }
    },
    {
      "filter": "highway~^motorway(_link)?$",
      "name": "motorway",
      "tags": {
        "maxspeed": "80",
        "maxspeed:coach:conditional": "90 @ (weightrating>12)",
        "maxspeed:conditional": "100 @ (wet)"
      }
    }
  ],
  "GA": [
    {
      "filter": "{is_urban}",
      "name": "urban",
      "tags": {
        "maxspeed": "60",
        "maxspeed:conditional": "40 @ (weightrating>3.5)"
      }
    },
    {
      "tags": {
        "maxspeed": "90",
        "maxspeed:bus:conditional": "60 @ (weightrating>12.5); 60 @ (trailerweight>0.75)",
        "maxspeed:conditional": "90 @ (weightrating>3.5); 60 @ (weightrating>12.5); 60 @ (trailerweight>0.75)"
      }
    }
  ],
  "GB": [
    {
      "filter": "lit=yes",
      "name": "UK built-up area",
      "tags": {
        "maxspeed": "30 mph"
      }
    },
    {
      "tags": {
        "maxspeed": "60 mph",
        "maxspeed:conditional": "50 mph @ (trailer)",
        "maxspeed:moNtorhome:conditional": "50 mph @ (emptyweight>3.05)"
      }
    },
    {
      "filter": "oneway~^yes|-1$ and dual_carriageway!=no",
      "name": "dual carriageway",
      "tags": {
        "maxspeed": "70 mph",
        "maxspeed:conditional": "60 mph @ (trailer)",
        "maxspeed:moNtorhome:conditional": "60 mph @ (emptyweight>3.05)"
      }
    },
    {
      "filter": "highway~^motorway(_link)?$",
      "name": "motorway",
      "tags": {
        "maxspeed": "70 mph",
        "maxspeed:bus:conditional": "60 mph @ (length>12)",
        "maxspeed:conditional": "60 mph @ (trailer)",
        "maxspeed:hgv:conditional": "60 mph @ (weightrating>7.5); 60 mph @ (articulated)"
      }
    }
  ],
  "GB-SCT": [
    {
      "tags": {
        "maxspeed": "60 mph",
        "maxspeed:conditional": "50 mph @ (trailer)",
        "maxspeed:hgv:conditional": "40 mph @ (weightrating>7.5)",
        "maxspeed:moNtorhome:conditional": "50 mph @ (emptyweight>3.05)"
      }
    },
    {
      "filter": "oneway~^yes|-1$ and dual_carriageway!=no",
      "name": "dual carriageway",
      "tags": {
        "maxspeed": "70 mph",
        "maxspeed:conditional": "60 mph @ (trailer)",
        "maxspeed:hgv:conditional": "50 mph @ (weightrating>7.5)",
        "maxspeed:moNtorhome:conditional": "60 mph @ (emptyweight>3.05)"
      }
    }
  ],
  "GE": [
    {
      "filter": "highway=living_street or living_street=yes",
      "name": "living street",
      "tags": {
        "maxspeed": "20"
      }
    },
    {
      "filter": "{is_urban}",
      "name": "urban",
      "tags": {
        "maxspeed": "60"
      }
    },
    {
      "tags": {
        "maxspeed": "80",
        "maxspeed:conditional": "80 @ (trailer); 70 @ (trailerweight>0.75)"
      }
    },
    {
      "filter": "highway~^motorway(_link)?$",
      "name": "motorway",
      "tags": {
        "maxspeed": "80",
        "maxspeed:conditional": "80 @ (trailer); 70 @ (trailerweight>0.75)"
      }
    }
  ],
  "GH": [
    {
      "filter": "highway=pedestrian",
      "name": "pedestrian zone",
      "tags": {
        "maxspeed": "30"
      }
    },
    {
      "filter": "{is_urban}",
      "name": "urban",
      "tags": {
        "maxspeed": "50"
      }
    },
    {
      "tags": {
        "maxspeed": "90"
      }
    },
    {
      "filter": "highway~^motorway(_link)?$",
      "name": "motorway",
      "tags": {
        "maxspeed": "100"
      }
    }
  ],
  "GQ": [
    {
      "filter": "{is_urban}",
      "name": "urban",
      "tags": {
        "maxspeed": "60",
        "maxspeed:conditional": "40 @ (weightrating>3.5)"
      }
    },
    {
      "tags": {
        "maxspeed": "90",
        "maxspeed:bus:conditional": "60 @ (weightrating>12.5); 60 @ (trailerweight>0.75)",
        "maxspeed:conditional": "90 @ (weightrating>3.5); 60 @ (weightrating>12.5); 60 @ (trailerweight>0.75)"
      }
    }
  ],
  "GT": [
    {
      "filter": "{is_school_zone}",
      "name": "school zone",
      "tags": {
        "maxspeed": "30",
        "maxspeed:conditional": "20 @ (trailer); 20 @ (weightrating>3.5)"
      }
    },
    {
      "filter": "{is_urban} and width>=3 and width<5.5",
      "fuzzy_filter": "{is_urban} and highway~^service|residential$",
      "name": "Guatemala: V\u00eda residencial",
      "tags": {
        "maxspeed": "30",
        "maxspeed:conditional": "20 @ (trailer); 20 @ (weightrating>3.5)"
      }
    },
    {
      "filter": "{is_urban} and width>=5",
      "name": "Guatemala: Camino o v\u00eda local",
      "tags": {
        "maxspeed": "40",
        "maxspeed:conditional": "30 @ (trailer); 30 @ (weightrating>3.5)"
      }
    },
    {
      "filter": "{is_urban} and (lanes>=3 and width>=9 or oneway~^yes|-1$ and lanes>=2 and dual_carriageway!=no and width>=6)",
      "fuzzy_filter": "{is_urban} and highway~^secondary(_link?)$",
      "name": "Guatemala: Arteria secundaria",
      "tags": {
        "maxspeed": "50",
        "maxspeed:conditional": "40 @ (trailer); 40 @ (weightrating>3.5)"
      }
    },
    {
      "filter": "{is_urban} and (lanes>=3 and width>=10.5 or oneway~^yes|-1$ and lanes>=2 and dual_carriageway!=no and width>=7)",
      "fuzzy_filter": "{is_urban} and highway~^primary(_link?)$",
      "name": "Guatemala: Arteria principal",
      "tags": {
        "maxspeed": "60",
        "maxspeed:conditional": "50 @ (trailer); 50 @ (weightrating>3.5)"
      }
    },
    {
      "filter": "{is_urban} and (oneway~^yes|-1$ and lanes>=2 and width>=7 and shoulder~^yes|both|left|right$) or (lanes>=4 and width>=14 and shoulder~^yes|both$)",
      "fuzzy_filter": "{is_urban} and highway~^trunk(_link?)$",
      "name": "Guatemala: V\u00eda r\u00e1pida urbana",
      "tags": {
        "maxspeed": "80",
        "maxspeed:conditional": "70 @ (trailer); 70 @ (weightrating>3.5)"
      }
    },
    {
      "filter": "{is_urban} and highway~^motorway(_link?)$",
      "name": "Guatemala: Autopista urbana",
      "tags": {
        "maxspeed": "90",
        "maxspeed:conditional": "80 @ (trailer); 80 @ (weightrating>3.5)"
      }
    },
    {
      "tags": {
        "maxspeed": "40",
        "maxspeed:conditional": "30 @ (trailer); 30 @ (weightrating>3.5)"
      }
    },
    {
      "filter": "lanes>=2 and width>=5.5",
      "fuzzy_filter": "highway~^secondary(_link?)$",
      "name": "Guatemala: Carretera secundaria",
      "tags": {
        "maxspeed": "60",
        "maxspeed:conditional": "50 @ (trailer); 50 @ (weightrating>3.5)"
      }
    },
    {
      "filter": "lanes>=2 and width>=7 and shoulder~^yes|both|left|right$",
      "fuzzy_filter": "highway~^primary(_link?)$",
      "name": "Guatemala: Carretera principal",
      "tags": {
        "maxspeed": "80",
        "maxspeed:conditional": "60 @ (trailer); 60 @ (weightrating>3.5)"
      }
    },
    {
      "filter": "(oneway~^yes|-1$ and lanes>=2 and width>=7 and shoulder~^yes|both|left|right$) or (lanes>=4 and width>=14 and shoulder~^yes|both$)",
      "fuzzy_filter": "highway~^trunk(_link?)$",
      "name": "Guatemala: V\u00eda r\u00e1pida",
      "tags": {
        "maxspeed": "90",
        "maxspeed:conditional": "70 @ (trailer); 70 @ (weightrating>3.5)"
      }
    },
    {
      "filter": "highway~^motorway(_link?)$",
      "name": "Guatemala: Autopista",
      "tags": {
        "maxspeed": "100",
        "maxspeed:conditional": "80 @ (trailer); 80 @ (weightrating>3.5)"
      }
    }
  ],
  "GU": [
    {
      "tags": {
        "maxspeed": "45 mph"
      }
    }
  ],
  "HK": [
    {
      "filter": "{is_urban}",
      "name": "urban",
      "tags": {
        "maxspeed": "50"
      }
    },
    {
      "tags": {
        "maxspeed": "70"
      }
    },
    {
      "filter": "highway~^motorway(_link)?$",
      "name": "motorway",
      "tags": {
        "maxspeed": "70"
      }
    }
  ],
  "HR": [
    {
      "filter": "{is_urban}",
      "name": "urban",
      "tags": {
        "maxspeed": "50"
      }
    },
    {
      "tags": {
        "maxspeed": "80",
        "maxspeed:bus:conditional": "70 @ (articulated)",
        "maxspeed:conditional": "80 @ (trailer); 80 @ (weightrating>3.5)"
      }
    },
    {
      "filter": "motorroad=yes",
      "name": "motorroad",
      "tags": {
        "maxspeed": "80",
        "maxspeed:bus:conditional": "70 @ (articulated)",
        "maxspeed:conditional": "80 @ (trailer); 80 @ (weightrating>3.5)"
      }
    },
    {
      "filter": "highway~^motorway(_link)?$",
      "name": "motorway",
      "tags": {
        "maxspeed": "80",
        "maxspeed:bus:conditional": "70 @ (articulated)",
        "maxspeed:conditional": "90 @ (trailer); 90 @ (weightrating>3.5)"
      }
    }
  ],
  "HU": [
    {
      "filter": "highway=living_street or living_street=yes",
      "name": "living street",
      "tags": {
        "maxspeed": "20"
      }
    },
    {
      "filter": "bicycle_road=yes or cyclestreet=yes",
      "name": "bicycle road",
      "tags": {
        "maxspeed": "30"
      }
    },
    {
      "filter": "{is_urban}",
      "name": "urban",
      "tags": {
        "maxspeed": "40"
      }
    },
    {
      "tags": {
        "maxspeed": "40",
        "maxspeed:conditional": "70 @ (weightrating>3.5); 70 @ (trailer)"
      }
    },
    {
      "filter": "motorroad=yes",
      "name": "motorroad",
      "tags": {
        "maxspeed": "70",
        "maxspeed:conditional": "70 @ (weightrating>3.5); 70 @ (trailer)"
      }
    },
    {
      "filter": "highway~^motorway(_link)?$",
      "name": "motorway",
      "tags": {
        "maxspeed": "80",
        "maxspeed:conditional": "80 @ (weightrating>3.5); 80 @ (trailer)"
      }
    }
  ],
  "IE": [
    {
      "filter": "{is_urban}",
      "name": "urban",
      "tags": {
        "maxspeed": "50"
      }
    },
    {
      "tags": {
        "maxspeed": "80",
        "maxspeed:conditional": "80 @ (trailer)"
      }
    },
    {
      "filter": "ref~^N or (highway~^trunk(_link)?|primary(_link)?$ and (!ref or ref~^N))",
      "name": "Irish national road",
      "tags": {
        "maxspeed": "80",
        "maxspeed:conditional": "80 @ (trailer)"
      }
    },
    {
      "filter": "highway~^motorway(_link)?$",
      "name": "motorway",
      "tags": {
        "maxspeed": "90",
        "maxspeed:conditional": "80 @ (trailer)"
      }
    }
  ],
  "IL": [
    {
      "filter": "highway=living_street or living_street=yes",
      "name": "living street",
      "tags": {
        "maxspeed": "30"
      }
    },
    {
      "filter": "{is_urban}",
      "name": "urban",
      "tags": {
        "maxspeed": "50"
      }
    },
    {
      "tags": {
        "maxspeed": "80",
        "maxspeed:hgv:conditional": "80 @ (weightrating>12)"
      }
    },
    {
      "filter": "oneway~^yes|-1$ and dual_carriageway!=no",
      "name": "dual carriageway",
      "tags": {
        "maxspeed": "90",
        "maxspeed:hgv:conditional": "80 @ (weightrating>12)"
      }
    },
    {
      "filter": "highway~^motorway(_link)?$",
      "name": "motorway",
      "tags": {
        "maxspeed": "100",
        "maxspeed:hgv:conditional": "80 @ (weightrating>12)"
      }
    }
  ],
  "IN": [
    {
      "filter": "{is_urban}",
      "name": "urban",
      "tags": {
        "maxspeed": "50"
      }
    },
    {
      "tags": {
        "maxspeed": "50"
      }
    },
    {
      "filter": "oneway~^yes|-1$ and lanes>=2 and dual_carriageway!=no",
      "name": "dual carriageway with 2 or more lanes in each direction",
      "tags": {
        "maxspeed": "50"
      }
    },
    {
      "filter": "highway~^motorway(_link)?$",
      "name": "motorway",
      "tags": {
        "maxspeed": "50"
      }
    }
  ],
  "IN-KL": [
    {
      "filter": "{is_school_zone}",
      "name": "school zone",
      "tags": {
        "maxspeed": "30",
        "maxspeed:conditional": "25 @ (trailer)"
      }
    },
    {
      "filter": "{is_urban}",
      "name": "urban",
      "tags": {
        "maxspeed": "30",
        "maxspeed:conditional": "40 @ (trailer); 40 @ (weightrating>7.5)"
      }
    },
    {
      "tags": {
        "maxspeed": "40",
        "maxspeed:conditional": "60 @ (trailer); 50 @ (trailer AND weightrating>7.5); 40 @ (articulated AND weightrating>12)"
      }
    },
    {
      "filter": "ref~^SH",
      "name": "Kerala state highway",
      "tags": {
        "maxspeed": "50",
        "maxspeed:conditional": "65 @ (weightrating>7.5); 60 @ (trailer); 60 @ (articulated AND weightrating>12); 50 @ (trailerweight>0.8); 65 @ (trailer AND weightrating>7.5)",
        "maxspeed:goods:conditional": "60 @ (articulated AND weightrating>12)"
      }
    },
    {
      "filter": "ref~^NH",
      "name": "Kerala national highway",
      "tags": {
        "maxspeed": "50",
        "maxspeed:conditional": "65 @ (weightrating>7.5); 60 @ (trailer); 60 @ (articulated AND weightrating>12); 50 @ (trailerweight>0.8); 65 @ (trailer AND weightrating>7.5)",
        "maxspeed:goods:conditional": "60 @ (articulated AND weightrating>12); 50 @ (trailer AND weightrating>12)"
      }
    },
    {
      "filter": "(oneway~^yes|-1$ and lanes>=2) or lanes>=4",
      "name": "road with 2 or more lanes in each direction",
      "tags": {
        "maxspeed": "50",
        "maxspeed:conditional": "70 @ (weightrating>7.5); 65 @ (articulated AND weightrating>12); 60 @ (trailer); 50 @ (trailerweight>0.8); 65 @ (trailer AND weightrating>7.5)",
        "maxspeed:goods:conditional": "65 @ (weightrating>7.5); 65 @ (articulated AND weightrating>12)"
      }
    }
  ],
  "IN-PB": [
    {
      "filter": "{is_urban}",
      "name": "urban",
      "tags": {
        "maxspeed": "35",
        "maxspeed:conditional": "35 @ (trailer); 30 @ (trailerweight>0.8); 40 @ (weightrating>7.5); 30 @ (weightrating>7.5 AND trailer); 30 @ (weightrating>12 AND articulated)",
        "maxspeed:goods:conditional": "40 @ (weightrating>7.5); 30 @ (weightrating>7.5 AND trailer); 30 @ (weightrating>12 AND articulated)"
      }
    },
    {
      "filter": "ref~^SH",
      "name": "Punjab state highway",
      "tags": {
        "maxspeed": "50",
        "maxspeed:conditional": "50 @ (trailer); 45 @ (trailerweight>0.8); 55 @ (weightrating>7.5); 40 @ (weightrating>7.5 AND trailer); 50 @ (weightrating>12 AND trailer); 40 @ (weightrating>12 AND articulated)",
        "maxspeed:goods:conditional": "55 @ (weightrating>7.5); 40 @ (weightrating>7.5 AND trailer); 50 @ (weightrating>12 AND trailer); 40 @ (weightrating>12 AND articulated)"
      }
    },
    {
      "filter": "ref~^SH and oneway~^yes|-1$ and dual_carriageway!=no",
      "name": "Punjab state highway with dual carriageway",
      "tags": {
        "maxspeed": "50",
        "maxspeed:conditional": "50 @ (trailer); 45 @ (trailerweight>0.8); 55 @ (weightrating>7.5); 40 @ (weightrating>7.5 AND trailer); 50 @ (weightrating>12 AND trailer); 40 @ (weightrating>12 AND articulated)",
        "maxspeed:goods:conditional": "55 @ (weightrating>7.5); 40 @ (weightrating>7.5 AND trailer); 50 @ (weightrating>12 AND trailer); 40 @ (weightrating>12 AND articulated)"
      }
    },
    {
      "filter": "ref~^NH",
      "name": "Punjab national highway",
      "tags": {
        "maxspeed": "50",
        "maxspeed:conditional": "60 @ (trailer); 50 @ (trailerweight>0.8); 65 @ (weightrating>7.5); 40 @ (weightrating>7.5 AND trailer); 50 @ (weightrating>12 AND trailer); 50 @ (weightrating>12 AND articulated)",
        "maxspeed:goods:conditional": "40 @ (weightrating>7.5 AND trailer); 50 @ (weightrating>12 AND trailer); 50 @ (weightrating>12 AND articulated)"
      }
    },
    {
      "filter": "ref~^NH and oneway~^yes|-1$ and dual_carriageway!=no",
      "name": "Punjab national highway with dual carriageway",
      "tags": {
        "maxspeed": "50",
        "maxspeed:conditional": "60 @ (trailer); 50 @ (trailerweight>0.8); 65 @ (weightrating>7.5); 40 @ (weightrating>7.5 AND trailer); 50 @ (weightrating>12 AND trailer); 50 @ (weightrating>12 AND articulated)",
        "maxspeed:goods:conditional": "40 @ (weightrating>7.5 AND trailer); 50 @ (weightrating>12 AND trailer); 50 @ (weightrating>12 AND articulated)"
      }
    }
  ],
  "IS": [
    {
      "filter": "highway=living_street or living_street=yes",
      "name": "living street",
      "tags": {
        "maxspeed": "15"
      }
    },
    {
      "filter": "{is_urban}",
      "name": "urban",
      "tags": {
        "maxspeed": "50"
      }
    },
    {
      "tags": {
        "maxspeed": "80",
        "maxspeed:conditional": "80 @ (trailer); 80 @ (weightrating>3.5)"
      }
    },
    {
      "filter": "surface~^asphalt|concrete$",
      "name": "road with asphalt or concrete surface",
      "tags": {
        "maxspeed": "90",
        "maxspeed:conditional": "80 @ (trailer); 80 @ (weightrating>3.5)"
      }
    }
  ],
  "IT": [
    {
      "filter": "{is_urban}",
      "name": "urban",
      "tags": {
        "maxspeed": "30"
      }
    },
    {
      "tags": {
        "maxspeed": "50",
        "maxspeed:bus:conditional": "70 @ (weightrating>8)",
        "maxspeed:conditional": "80 @ (weightrating>3.5); 70 @ (trailer); 70 @ (weightrating>12)",
        "maxspeed:hgv:conditional": "70 @ (weightrating>12)",
        "maxspeed:truck_bus:conditional": "70 @ (weightrating>5)"
      }
    },
    {
      "filter": "motorroad=yes",
      "name": "motorroad",
      "tags": {
        "maxspeed": "50",
        "maxspeed:bus:conditional": "70 @ (weightrating>8)",
        "maxspeed:conditional": "90 @ (wet); 80 @ (weightrating>3.5); 70 @ (trailer); 70 @ (weightrating>12)",
        "maxspeed:hgv:conditional": "70 @ (weightrating>12)",
        "maxspeed:truck_bus:conditional": "70 @ (weightrating>5)"
      }
    },
    {
      "filter": "highway~^motorway(_link)?$",
      "name": "motorway",
      "tags": {
        "maxspeed": "50",
        "maxspeed:bus:conditional": "80 @ (weightrating>8)",
        "maxspeed:conditional": "110 @ (wet); 100 @ (weightrating>3.5); 80 @ (trailer); 80 @ (weightrating>12)",
        "maxspeed:hgv:conditional": "80 @ (weightrating>12)",
        "maxspeed:truck_bus:conditional": "80 @ (weightrating>5)"
      }
    }
  ],
  "JE": [
    {
      "tags": {
        "maxspeed": "30 mph",
        "maxspeed:conditional": "30 mph @ (trailer)"
      }
    }
  ],
  "KE": [
    {
      "filter": "{is_urban}",
      "name": "urban",
      "tags": {
        "maxspeed": "50"
      }
    },
    {
      "tags": {
        "maxspeed": "80",
        "maxspeed:bus:conditional": "65 @ (trailer)",
        "maxspeed:conditional": "80 @ (articulated); 65 @ (trailer)",
        "maxspeed:goods:conditional": "65 @ (trailer)",
        "maxspeed:minibus:conditional": "65 @ (trailer)"
      }
    },
    {
      "filter": "oneway~^yes|-1$ and dual_carriageway!=no",
      "name": "dual carriageway",
      "tags": {
        "maxspeed": "80",
        "maxspeed:bus:conditional": "65 @ (trailer)",
        "maxspeed:conditional": "80 @ (articulated); 65 @ (trailer)",
        "maxspeed:goods:conditional": "65 @ (trailer)",
        "maxspeed:minibus:conditional": "65 @ (trailer)"
      }
    }
  ],
  "LI": [
    {
      "filter": "{is_urban}",
      "name": "urban",
      "tags": {
        "maxspeed": "50"
      }
    },
    {
      "tags": {
        "maxspeed": "80"
      }
    }
  ],
  "LR": [
    {
      "filter": "{is_school_zone}",
      "name": "school zone",
      "tags": {
        "maxspeed": "15 mph"
      }
    },
    {
      "filter": "{is_urban}",
      "name": "urban",
      "tags": {
        "maxspeed": "25 mph"
      }
    },
    {
      "filter": "{is_residential_district} and\u00a0!{is_urban}",
      "name": "non-urban residential district",
      "tags": {
        "maxspeed": "35 mph"
      }
    },
    {
      "tags": {
        "maxspeed": "40 mph"
      }
    }
  ],
  "LS": [
    {
      "filter": "{is_urban}",
      "name": "urban",
      "tags": {
        "maxspeed": "60"
      }
    },
    {
      "tags": {
        "maxspeed": "100",
        "maxspeed:goods:conditional": "80 @ (weightrating>9)"
      }
    },
    {
      "filter": "highway~^motorway(_link)?$",
      "name": "motorway",
      "tags": {
        "maxspeed": "100",
        "maxspeed:goods:conditional": "80 @ (weightrating>9)"
      }
    }
  ],
  "LT": [
    {
      "filter": "highway=living_street or living_street=yes",
      "name": "living street",
      "tags": {
        "maxspeed": "20"
      }
    },
    {
      "filter": "highway=service and service=parking_aisle",
      "name": "parking lot",
      "tags": {
        "maxspeed": "20"
      }
    },
    {
      "filter": "{is_urban}",
      "name": "urban",
      "tags": {
        "maxspeed": "50"
      }
    },
    {
      "tags": {
        "maxspeed": "70"
      }
    },
    {
      "filter": "surface~^asphalt|concrete$",
      "name": "road with asphalt or concrete surface",
      "tags": {
        "maxspeed": "80",
        "maxspeed:conditional": "80 @ (weightrating>3.5)"
      }
    },
    {
      "filter": "motorroad=yes",
      "name": "motorroad",
      "tags": {
        "maxspeed": "80",
        "maxspeed:bus:conditional": "80 @ (trailer)",
        "maxspeed:conditional": "110 @ (Nov-Mar); 90 @ (trailer); 80 @ (weightrating>3.5)"
      }
    },
    {
      "filter": "highway~^motorway(_link)?$",
      "name": "motorway",
      "tags": {
        "maxspeed": "90",
        "maxspeed:bus:conditional": "90 @ (trailer)",
        "maxspeed:conditional": "110 @ (Nov-Mar); 90 @ (weightrating>3.5); 90 @ (trailer)"
      }
    }
  ],
  "LU": [
    {
      "filter": "highway=pedestrian",
      "name": "pedestrian zone",
      "tags": {
        "maxspeed": "20"
      }
    },
    {
      "filter": "highway=living_street or living_street=yes",
      "name": "living street",
      "tags": {
        "maxspeed": "20"
      }
    },
    {
      "filter": "{is_urban}",
      "name": "urban",
      "tags": {
        "maxspeed": "50"
      }
    },
    {
      "tags": {
        "maxspeed": "75",
        "maxspeed:conditional": "75 @ (weightrating>7.5); 75 @ (trailer)"
      }
    },
    {
      "filter": "highway~^motorway(_link)?$",
      "name": "motorway",
      "tags": {
        "maxspeed": "90",
        "maxspeed:conditional": "110 @ (wet); 90 @ (weightrating>7.5); 90 @ (trailer)"
      }
    }
  ],
  "LV": [
    {
      "filter": "highway=living_street or living_street=yes",
      "name": "living street",
      "tags": {
        "maxspeed": "20"
      }
    },
    {
      "filter": "highway=service and service=parking_aisle",
      "name": "parking lot",
      "tags": {
        "maxspeed": "20"
      }
    },
    {
      "filter": "{is_urban}",
      "name": "urban",
      "tags": {
        "maxspeed": "50"
      }
    },
    {
      "filter": "surface!~^asphalt|concrete$",
      "name": "road without asphalt or concrete surface",
      "tags": {
        "maxspeed": "60"
      }
    },
    {
      "tags": {
        "maxspeed": "60",
        "maxspeed:conditional": "80 @ (weightrating>7.5); 80 @ (trailer)",
        "maxspeed:hgv:conditional": "80 @ (weightrating>7.5)"
      }
    },
    {
      "filter": "motorroad=yes",
      "name": "motorroad",
      "tags": {
        "maxspeed": "100",
        "maxspeed:bus:conditional": "90 @ (Dec-Feb)",
        "maxspeed:conditional": "90 @ (Dec-Feb); 90 @ (trailer)",
        "maxspeed:hgv:conditional": "90 @ (Dec-Feb); 80 @ (weightrating>7.5)"
      }
    }
  ],
  "MC": [
    {
      "tags": {
        "maxspeed": "50"
      }
    }
  ],
  "MP": [
    {
      "tags": {
        "maxspeed": "45 mph"
      }
    }
  ],
  "MS": [
    {
      "tags": {
        "maxspeed": "25 mph"
      }
    }
  ],
  "MT": [
    {
      "filter": "{is_urban}",
      "name": "urban",
      "tags": {
        "maxspeed": "40",
        "maxspeed:goods:conditional": "30 @ (weightrating>3)"
      }
    },
    {
      "tags": {
        "maxspeed": "60",
        "maxspeed:goods:conditional": "40 @ (weightrating>3)"
      }
    }
  ],
  "MU": [
    {
      "tags": {
        "maxspeed": "60"
      }
    },
    {
      "filter": "ref~^B",
      "name": "Mauritius B road",
      "tags": {
        "maxspeed": "60",
        "maxspeed:bus:conditional": "60 @ (weightrating>3.5); 60 @ (trailer)",
        "maxspeed:conditional": "60 @ (weightrating>3.5); 60 @ (trailer)"
      }
    },
    {
      "filter": "ref~^A",
      "name": "Mauritius A road",
      "tags": {
        "maxspeed": "60",
        "maxspeed:bus:conditional": "60 @ (weightrating>3.5); 60 @ (trailer)",
        "maxspeed:conditional": "60 @ (weightrating>3.5); 60 @ (trailer)"
      }
    },
    {
      "filter": "ref~^M",
      "name": "Mauritius M road",
      "tags": {
        "maxspeed": "80",
        "maxspeed:bus:conditional": "60 @ (trailer)",
        "maxspeed:conditional": "80 @ (weightrating>3.5); 60 @ (trailer)",
        "maxspeed:goods:conditional": "60 @ (trailer)",
        "maxspeed:hgv:conditional": "60 @ (trailer)"
      }
    }
  ],
  "MW": [
    {
      "filter": "{is_urban}",
      "name": "urban",
      "tags": {
        "maxspeed": "50"
      }
    },
    {
      "tags": {
        "maxspeed": "90",
        "maxspeed:bus:conditional": "80 @ (articulated)",
        "maxspeed:hgv:conditional": "80 @ (weightrating>9)"
      }
    },
    {
      "filter": "surface~^asphalt|concrete$ and width>5.5",
      "name": "Malawi highway",
      "tags": {
        "maxspeed": "90",
        "maxspeed:bus:conditional": "80 @ (articulated)",
        "maxspeed:conditional": "90 @ (trailer)",
        "maxspeed:hgv:conditional": "80 @ (weightrating>9)"
      }
    }
  ],
  "MX": [
    {
      "filter": "{is_urban}",
      "name": "urban",
      "tags": {
        "maxspeed": "50"
      }
    },
    {
      "tags": {
        "maxspeed": "80",
        "maxspeed:bus:conditional": "80 @ (sunset-sunrise); 70 @ (trailer)",
        "maxspeed:conditional": "90 @ (sunset-sunrise); 70 @ (trailer)",
        "maxspeed:hgv:conditional": "70 @ (sunset-sunrise); 70 @ (trailer)"
      }
    }
  ],
  "MZ": [
    {
      "filter": "{is_urban}",
      "name": "urban",
      "tags": {
        "maxspeed": "50"
      }
    },
    {
      "tags": {
        "maxspeed": "70",
        "maxspeed:conditional": "100 @ (trailer)",
        "maxspeed:motorcycle:conditional": "70 @ (trailer)"
      }
    }
  ],
  "NA": [
    {
      "filter": "{is_urban}",
      "name": "urban",
      "tags": {
        "maxspeed": "60"
      }
    },
    {
      "tags": {
        "maxspeed": "100",
        "maxspeed:goods:conditional": "80 @ (weightrating>9)"
      }
    },
    {
      "filter": "surface~^asphalt|concrete$",
      "name": "road with asphalt or concrete surface",
      "tags": {
        "maxspeed": "100",
        "maxspeed:goods:conditional": "80 @ (weightrating>9)"
      }
    },
    {
      "filter": "highway~^motorway(_link)?$",
      "name": "motorway",
      "tags": {
        "maxspeed": "100",
        "maxspeed:goods:conditional": "80 @ (weightrating>9)"
      }
    }
  ],
  "NE": [
    {
      "filter": "{is_urban}",
      "name": "urban",
      "tags": {
        "maxspeed": "50"
      }
    },
    {
      "filter": "surface~^asphalt|concrete$",
      "name": "road with asphalt or concrete surface",
      "tags": {
        "maxspeed": "90",
        "maxspeed:goods:conditional": "90 @ (weightrating>9)",
        "maxspeed:hazmat:conditional": "60 @ (weightrating>12)"
      }
    }
  ],
  "NG": [
    {
      "filter": "{is_urban}",
      "name": "urban",
      "tags": {
        "maxspeed": "45",
        "maxspeed:conditional": "45 @ (trailer)"
      }
    },
    {
      "tags": {
        "maxspeed": "50",
        "maxspeed:conditional": "45 @ (trailer)"
      }
    },
    {
      "filter": "highway~^motorway(_link)?$",
      "name": "motorway",
      "tags": {
        "maxspeed": "60",
        "maxspeed:conditional": "45 @ (trailer)"
      }
    }
  ],
  "NI": [
    {
      "filter": "{is_urban}",
      "name": "urban",
      "tags": {
        "maxspeed": "45"
      }
    },
    {
      "tags": {
        "maxspeed": "60"
      }
    },
    {
      "fuzzy_filter": "name~^Carretera",
      "name": "Nicaragua: Carretera",
      "tags": {
        "maxspeed": "100"
      }
    }
  ],
  "NL": [
    {
      "filter": "highway=living_street or living_street=yes",
      "name": "living street",
      "tags": {
        "maxspeed": "15"
      }
    },
    {
      "filter": "{is_urban}",
      "name": "urban",
      "tags": {
        "maxspeed": "50"
      }
    },
    {
      "tags": {
        "maxspeed": "80",
        "maxspeed:conditional": "80 @ (weightrating>3.5 AND trailer)",
        "maxspeed:moNtorhome:conditional": "80 @ (weightrating>3.5)"
      }
    },
    {
      "filter": "motorroad=yes",
      "name": "motorroad",
      "tags": {
        "maxspeed": "80",
        "maxspeed:conditional": "90 @ (trailer); 80 @ (weightrating>3.5 AND trailer)",
        "maxspeed:moNtorhome:conditional": "80 @ (weightrating>3.5)"
      }
    },
    {
      "filter": "highway~^motorway(_link)?$",
      "name": "motorway",
      "tags": {
        "maxspeed": "80",
        "maxspeed:conditional": "90 @ (trailer); 80 @ (weightrating>3.5 AND trailer)",
        "maxspeed:moNtorhome:conditional": "80 @ (weightrating>3.5)"
      }
    }
  ],
  "NO": [
    {
      "filter": "highway=living_street or living_street=yes",
      "name": "living street",
      "tags": {
        "maxspeed": "walk"
      }
    },
    {
      "filter": "highway=pedestrian",
      "name": "pedestrian zone",
      "tags": {
        "maxspeed": "walk"
      }
    },
    {
      "filter": "{is_urban}",
      "name": "urban",
      "tags": {
        "maxspeed": "50"
      }
    },
    {
      "tags": {
        "maxspeed": "80"
      }
    },
    {
      "filter": "highway~^motorway(_link)?$",
      "name": "motorway",
      "tags": {
        "maxspeed": "80",
        "maxspeed:conditional": "80 @ (weightrating>7.5); 80 @ (trailer)"
      }
    }
  ],
  "NP": [
    {
      "filter": "{is_urban}",
      "name": "urban",
      "tags": {
        "maxspeed": "40"
      }
    },
    {
      "tags": {
        "maxspeed": "50"
      }
    }
  ],
  "NZ": [
    {
      "filter": "highway=living_street or living_street=yes",
      "name": "living street",
      "tags": {
        "maxspeed": "10"
      }
    },
    {
      "filter": "{is_urban}",
      "name": "urban",
      "tags": {
        "maxspeed": "50"
      }
    },
    {
      "tags": {
        "maxspeed": "100",
        "maxspeed:conditional": "90 @ (weightrating>3.5); 90 @ (trailer)",
        "maxspeed:school_bus:conditional": "80 @ (weightrating>2)"
      }
    }
  ],
  "PA": [
    {
      "filter": "{is_school_zone}",
      "name": "school zone",
      "tags": {
        "maxspeed": "30"
      }
    },
    {
      "filter": "{is_urban}",
      "name": "urban",
      "tags": {
        "maxspeed": "40"
      }
    },
    {
      "filter": "{is_urban} and highway~^tertiary|secondary|primary|trunk$ and (lanes<=2 or oneway~^yes|-1$ and lanes<2)",
      "name": "Panama: Avenida",
      "tags": {
        "maxspeed": "40"
      }
    },
    {
      "filter": "{is_urban} and (lanes=4 or oneway~^yes|-1$ and lanes=2)",
      "name": "Panama: Avenida de dos carriles",
      "tags": {
        "maxspeed": "80",
        "maxspeed:lanes": "80|50"
      }
    },
    {
      "filter": "{is_urban} and (lanes>=6 or oneway~^yes|-1$ and lanes>=3)",
      "name": "Panama: Carreteras multicarriles en zona urbana",
      "tags": {
        "maxspeed": "80",
        "maxspeed:lanes": "80|60|50"
      }
    },
    {
      "tags": {
        "maxspeed": "80"
      }
    },
    {
      "filter": "highway~^motorway(_link)?$",
      "name": "motorway",
      "tags": {
        "maxspeed": "80"
      }
    }
  ],
  "PE": [
    {
      "filter": "{is_school_zone}",
      "name": "school zone",
      "tags": {
        "maxspeed": "30"
      }
    },
    {
      "filter": "{is_urban}",
      "name": "urban",
      "tags": {
        "maxspeed": "40"
      }
    },
    {
      "tags": {
        "maxspeed": "60"
      }
    },
    {
      "filter": "name~^Avenida",
      "name": "Per\u00fa: Avenida",
      "tags": {
        "maxspeed": "60"
      }
    },
    {
      "filter": "name~^V\u00eda Expresa",
      "name": "Per\u00fa: V\u00eda Expresa",
      "tags": {
        "maxspeed": "80"
      }
    },
    {
      "filter": "ref~^PE",
      "name": "Per\u00fa: Carretera",
      "tags": {
        "maxspeed": "90",
        "maxspeed:conditional": "80 @ (caravan)"
      }
    }
  ],
  "PL": [
    {
      "filter": "highway=living_street or living_street=yes",
      "name": "living street",
      "tags": {
        "maxspeed": "20"
      }
    },
    {
      "filter": "{is_urban}",
      "name": "urban",
      "tags": {
        "maxspeed": "50",
        "maxspeed:conditional": "60 @ (23:00-05:00)"
      }
    },
    {
      "tags": {
        "maxspeed": "70",
        "maxspeed:conditional": "70 @ (weightrating>3.5); 70 @ (trailer)"
      }
    },
    {
      "filter": "oneway~^yes|-1$ and lanes>=2 and dual_carriageway!=no",
      "name": "dual carriageway with 2 or more lanes in each direction",
      "tags": {
        "maxspeed": "80",
        "maxspeed:conditional": "80 @ (weightrating>3.5); 80 @ (trailer)"
      }
    },
    {
      "filter": "motorroad=yes and (oneway!~^yes|-1$ or dual_carriageway=no)",
      "name": "motorroad with single carriageway",
      "tags": {
        "maxspeed": "80",
        "maxspeed:conditional": "80 @ (weightrating>3.5); 80 @ (trailer)"
      }
    },
    {
      "filter": "motorroad=yes and oneway~^yes|-1$ and dual_carriageway!=no",
      "name": "motorroad with dual carriageway",
      "tags": {
        "maxspeed": "80",
        "maxspeed:conditional": "80 @ (weightrating>3.5); 80 @ (trailer)"
      }
    },
    {
      "filter": "highway~^motorway(_link)?$",
      "name": "motorway",
      "tags": {
        "maxspeed": "80",
        "maxspeed:conditional": "80 @ (weightrating>3.5); 80 @ (trailer)"
      }
    }
  ],
  "PR": [
    {
      "filter": "{is_school_zone}",
      "name": "school zone",
      "tags": {
        "maxspeed": "15 mph"
      }
    },
    {
      "filter": "{is_urban}",
      "name": "urban",
      "tags": {
        "maxspeed": "15 mph",
        "maxspeed:hgv:conditional": "15 mph @ (weightrating>4.536)"
      }
    },
    {
      "tags": {
        "maxspeed": "30 mph",
        "maxspeed:hgv:conditional": "35 mph @ (weightrating>4.536)"
      }
    },
    {
      "filter": "highway~^motorway(_link)?$",
      "name": "motorway",
      "tags": {
        "maxspeed": "30 mph",
        "maxspeed:hgv:conditional": "55 mph @ (weightrating>4.536)"
      }
    }
  ],
  "PT": [
    {
      "filter": "highway=living_street or living_street=yes",
      "name": "living street",
      "tags": {
        "maxspeed": "20"
      }
    },
    {
      "filter": "{is_urban}",
      "name": "urban",
      "tags": {
        "maxspeed": "50",
        "maxspeed:hgv:conditional": "40 @ (trailer)"
      }
    },
    {
      "tags": {
        "maxspeed": "80",
        "maxspeed:bus:conditional": "70 @ (trailer)",
        "maxspeed:conditional": "70 @ (trailer)",
        "maxspeed:goods:conditional": "70 @ (trailer)",
        "maxspeed:hgv:conditional": "70 @ (trailer)"
      }
    },
    {
      "filter": "motorroad=yes",
      "name": "motorroad",
      "tags": {
        "maxspeed": "90",
        "maxspeed:bus:conditional": "90 @ (trailer)",
        "maxspeed:conditional": "80 @ (trailer)",
        "maxspeed:goods:conditional": "80 @ (trailer)",
        "maxspeed:hgv:conditional": "70 @ (trailer)"
      }
    },
    {
      "filter": "highway~^motorway(_link)?$",
      "name": "motorway",
      "tags": {
        "maxspeed": "100",
        "maxspeed:bus:conditional": "90 @ (trailer)",
        "maxspeed:conditional": "100 @ (trailer)",
        "maxspeed:goods:conditional": "90 @ (trailer)",
        "maxspeed:hgv:conditional": "80 @ (trailer)"
      }
    }
  ],
  "PY": [
    {
      "filter": "{is_school_zone}",
      "name": "school zone",
      "tags": {
        "maxspeed": "20"
      }
    },
    {
      "filter": "{is_urban}",
      "name": "urban",
      "tags": {
        "maxspeed": "40"
      }
    },
    {
      "tags": {
        "maxspeed": "90"
      }
    }
  ],
  "RU": [
    {
      "filter": "highway=living_street or living_street=yes",
      "name": "living street",
      "tags": {
        "maxspeed": "20"
      }
    },
    {
      "filter": "bicycle_road=yes or cyclestreet=yes",
      "name": "bicycle road",
      "tags": {
        "maxspeed": "20"
      }
    },
    {
      "filter": "{is_urban}",
      "name": "urban",
      "tags": {
        "maxspeed": "60"
      }
    },
    {
      "tags": {
        "maxspeed": "70",
        "maxspeed:conditional": "70 @ (trailer)"
      }
    },
    {
      "filter": "highway~^motorway(_link)?$",
      "name": "motorway",
      "tags": {
        "maxspeed": "90",
        "maxspeed:conditional": "90 @ (trailer)"
      }
    }
  ],
  "SE": [
    {
      "filter": "highway=pedestrian",
      "name": "pedestrian zone",
      "tags": {
        "maxspeed": "walk"
      }
    },
    {
      "filter": "highway=living_street or living_street=yes",
      "name": "living street",
      "tags": {
        "maxspeed": "walk"
      }
    },
    {
      "filter": "{is_urban}",
      "name": "urban",
      "tags": {
        "maxspeed": "50"
      }
    },
    {
      "tags": {
        "maxspeed": "70"
      }
    },
    {
      "filter": "highway~^motorway(_link)?$",
      "name": "motorway",
      "tags": {
        "maxspeed": "90",
        "maxspeed:conditional": "80 @ (trailer)"
      }
    }
  ],
  "SG": [
    {
      "filter": "{is_school_zone}",
      "name": "school zone",
      "tags": {
        "maxspeed": "40"
      }
    },
    {
      "tags": {
        "maxspeed": "50"
      }
    }
  ],
  "SI": [
    {
      "filter": "highway=living_street or living_street=yes",
      "name": "living street",
      "tags": {
        "maxspeed": "10"
      }
    },
    {
      "filter": "highway=pedestrian",
      "name": "pedestrian zone",
      "tags": {
        "maxspeed": "10"
      }
    },
    {
      "filter": "{is_urban}",
      "name": "urban",
      "tags": {
        "maxspeed": "50"
      }
    },
    {
      "tags": {
        "maxspeed": "80",
        "maxspeed:bus:conditional": "70 @ (weightrating>3.5 AND trailerweight>0.75); 70 @ (articulated)",
        "maxspeed:conditional": "80 @ (weightrating>3.5); 70 @ (weightrating>3.5 AND trailerweight>0.75)",
        "maxspeed:hgv:conditional": "70 @ (trailerweight>0.75)"
      }
    },
    {
      "filter": "highway~^trunk(_link)?$",
      "name": "trunk",
      "tags": {
        "maxspeed": "80",
        "maxspeed:bus:conditional": "70 @ (weightrating>3.5 AND trailerweight>0.75); 70 @ (articulated)",
        "maxspeed:conditional": "100 @ (trailer); 80 @ (weightrating>3.5); 70 @ (weightrating>3.5 AND trailerweight>0.75)",
        "maxspeed:hgv:conditional": "70 @ (trailerweight>0.75)"
      }
    },
    {
      "filter": "highway~^motorway(_link)?$",
      "name": "motorway",
      "tags": {
        "maxspeed": "80",
        "maxspeed:bus:conditional": "70 @ (weightrating>3.5 AND trailerweight>0.75); 70 @ (articulated)",
        "maxspeed:conditional": "100 @ (trailer); 80 @ (weightrating>3.5); 70 @ (weightrating>3.5 AND trailerweight>0.75)",
        "maxspeed:hgv:conditional": "70 @ (trailerweight>0.75)"
      }
    }
  ],
  "SK": [
    {
      "filter": "highway=pedestrian",
      "name": "pedestrian zone",
      "tags": {
        "maxspeed": "20"
      }
    },
    {
      "filter": "highway=living_street or living_street=yes",
      "name": "living street",
      "tags": {
        "maxspeed": "20"
      }
    },
    {
      "filter": "{is_urban}",
      "name": "urban",
      "tags": {
        "maxspeed": "50"
      }
    },
    {
      "tags": {
        "maxspeed": "90",
        "maxspeed:conditional": "90 @ (weightrating>3.5); 90 @ (trailerweight>0.75)"
      }
    },
    {
      "filter": "motorroad=yes",
      "name": "motorroad",
      "tags": {
        "maxspeed": "100",
        "maxspeed:conditional": "100 @ (weightrating>3.5); 90 @ (trailerweight>0.75)"
      }
    },
    {
      "filter": "highway~^motorway(_link)?$",
      "name": "motorway",
      "tags": {
        "maxspeed": "100",
        "maxspeed:conditional": "100 @ (weightrating>3.5); 90 @ (trailerweight>0.75)"
      }
    }
  ],
  "SN": [
    {
      "tags": {
        "maxspeed": "85",
        "maxspeed:bus:conditional": "70 @ (seats>=15)",
        "maxspeed:conditional": "85 @ (trailerweight>0.75)",
        "maxspeed:hgv:conditional": "75 @ (weightrating>10); 65 @ (weightrating>16); 50 @ (weightrating>22)"
      }
    },
    {
      "filter": "ref~^N",
      "name": "Senegal national road",
      "tags": {
        "maxspeed": "100",
        "maxspeed:bus:conditional": "70 @ (seats>=15)",
        "maxspeed:conditional": "85 @ (trailerweight>0.75)",
        "maxspeed:hgv:conditional": "75 @ (weightrating>10); 65 @ (weightrating>16); 50 @ (weightrating>22)"
      }
    },
    {
      "filter": "highway~^motorway(_link)?$",
      "name": "motorway",
      "tags": {
        "maxspeed": "100",
        "maxspeed:bus:conditional": "70 @ (seats>=15)",
        "maxspeed:conditional": "85 @ (trailerweight>0.75)",
        "maxspeed:hgv:conditional": "75 @ (weightrating>10); 65 @ (weightrating>16); 50 @ (weightrating>22)"
      }
    }
  ],
  "SV": [
    {
      "filter": "junction=roundabout",
      "name": "roundabout",
      "tags": {
        "maxspeed": "30"
      }
    },
    {
      "filter": "{is_urban}",
      "name": "urban",
      "tags": {
        "maxspeed": "40"
      }
    },
    {
      "tags": {
        "maxspeed": "70"
      }
    }
  ],
  "TD": [
    {
      "filter": "{is_urban}",
      "name": "urban",
      "tags": {
        "maxspeed": "60",
        "maxspeed:conditional": "40 @ (weightrating>3.5)"
      }
    },
    {
      "tags": {
        "maxspeed": "90",
        "maxspeed:bus:conditional": "60 @ (weightrating>12.5); 60 @ (trailerweight>0.75)",
        "maxspeed:conditional": "90 @ (weightrating>3.5); 60 @ (weightrating>12.5); 60 @ (trailerweight>0.75)"
      }
    }
  ],
  "TH": [
    {
      "filter": "{is_urban}",
      "name": "urban",
      "tags": {
        "maxspeed": "45",
        "maxspeed:conditional": "45 @ (trailer AND weight>1.2)",
        "maxspeed:goods:conditional": "60 @ (weight>1.2)"
      }
    },
    {
      "tags": {
        "maxspeed": "60",
        "maxspeed:conditional": "60 @ (trailer AND weight>1.2)",
        "maxspeed:goods:conditional": "80 @ (weight>1.2)"
      }
    },
    {
      "filter": "highway~^motorway(_link)?$",
      "name": "motorway",
      "tags": {
        "maxspeed": "100",
        "maxspeed:conditional": "80 @ (trailer AND weight>1.2)",
        "maxspeed:goods:conditional": "80 @ (weight>1.2)"
      }
    }
  ],
  "TN": [
    {
      "filter": "{is_urban}",
      "name": "urban",
      "tags": {
        "maxspeed": "50"
      }
    },
    {
      "tags": {
        "maxspeed": "70",
        "maxspeed:coach:conditional": "80 @ (weightrating>10); 70 @ (weightrating>12); 60 @ (weightrating>19)",
        "maxspeed:conditional": "80 @ (weightrating>3.5); 70 @ (weightrating>12); 60 @ (weightrating>19)",
        "maxspeed:hazmat:conditional": "70 @ (weightrating>3.5); 60 @ (weightrating>12)"
      }
    },
    {
      "filter": "highway~^motorway(_link)?$",
      "name": "motorway",
      "tags": {
        "maxspeed": "70",
        "maxspeed:coach:conditional": "100 @ (weightrating>10); 90 @ (weightrating>12); 80 @ (weightrating>19)",
        "maxspeed:conditional": "100 @ (weightrating>3.5); 90 @ (weightrating>12); 80 @ (weightrating>19)",
        "maxspeed:hazmat:conditional": "90 @ (weightrating>3.5); 80 @ (weightrating>12)"
      }
    }
  ],
  "TV": [
    {
      "tags": {
        "maxspeed": "40"
      }
    }
  ],
  "TZ": [
    {
      "filter": "{is_urban}",
      "name": "urban",
      "tags": {
        "maxspeed": "50"
      }
    },
    {
      "tags": {
        "maxspeed": "110",
        "maxspeed:conditional": "80 @ (weightrating>3.5)"
      }
    }
  ],
  "UA": [
    {
      "filter": "highway=living_street or living_street=yes",
      "name": "living street",
      "tags": {
        "maxspeed": "20"
      }
    },
    {
      "filter": "highway=pedestrian",
      "name": "pedestrian zone",
      "tags": {
        "maxspeed": "20"
      }
    },
    {
      "filter": "{is_urban}",
      "name": "urban",
      "tags": {
        "maxspeed": "50"
      }
    },
    {
      "tags": {
        "maxspeed": "80",
        "maxspeed:bus:conditional": "90 @ (seats>=18); 80 @ (trailer)",
        "maxspeed:conditional": "80 @ (trailer)"
      }
    },
    {
      "filter": "oneway~^yes|-1$ and dual_carriageway!=no",
      "name": "dual carriageway",
      "tags": {
        "maxspeed": "80",
        "maxspeed:bus:conditional": "90 @ (seats>=18); 80 @ (trailer)",
        "maxspeed:conditional": "80 @ (trailer)"
      }
    },
    {
      "filter": "highway~^motorway(_link)?$",
      "name": "motorway",
      "tags": {
        "maxspeed": "80",
        "maxspeed:bus:conditional": "90 @ (seats>=18); 80 @ (trailer)",
        "maxspeed:conditional": "80 @ (trailer)"
      }
    }
  ],
  "UG": [
    {
      "filter": "{is_urban}",
      "name": "urban",
      "tags": {
        "maxspeed": "50"
      }
    },
    {
      "tags": {
        "maxspeed": "60",
        "maxspeed:conditional": "60 @ (trailer)"
      }
    },
    {
      "filter": "surface~^asphalt|concrete$",
      "name": "road with asphalt or concrete surface",
      "tags": {
        "maxspeed": "60",
        "maxspeed:conditional": "80 @ (trailer)"
      }
    }
  ],
  "US": [
    {
      "tags": {}
    }
  ],
  "US-AK": [
    {
      "filter": "highway=service and service=alley",
      "name": "alley",
      "tags": {
        "maxspeed": "15 mph"
      }
    },
    {
      "filter": "{is_business_district}",
      "name": "business district",
      "tags": {
        "maxspeed": "20 mph"
      }
    },
    {
      "filter": "{is_residential_district}",
      "name": "residence district",
      "tags": {
        "maxspeed": "25 mph"
      }
    },
    {
      "tags": {
        "maxspeed": "55 mph",
        "maxspeed:conditional": "45 mph @ (caravan)"
      }
    }
  ],
  "US-AL": [
    {
      "filter": "{is_urban}",
      "name": "urban",
      "tags": {
        "maxspeed": "30 mph"
      }
    },
    {
      "filter": "surface!~^asphalt|concrete$",
      "name": "road without asphalt or concrete surface",
      "tags": {
        "maxspeed": "35 mph"
      }
    },
    {
      "tags": {
        "maxspeed": "55 mph"
      }
    },
    {
      "filter": "(oneway~^yes|-1$ and lanes>=2) or lanes>=4",
      "name": "road with 2 or more lanes in each direction",
      "tags": {
        "maxspeed": "55 mph"
      }
    },
    {
      "filter": "ref~^I and highway~^motorway|motorway_link$",
      "name": "US interstate highway",
      "tags": {
        "maxspeed": "55 mph"
      }
    }
  ],
  "US-AR": [
    {
      "filter": "{is_urban}",
      "name": "urban",
      "tags": {
        "maxspeed": "30 mph"
      }
    },
    {
      "tags": {
        "maxspeed": "65 mph",
        "maxspeed:conditional": "55 mph @ (caravan)",
        "maxspeed:hgv:conditional": "50 mph @ (weightcapacity>1.361); 30 mph @ (weightrating>29.03)"
      }
    }
  ],
  "US-AZ": [
    {
      "filter": "{is_residential_district}",
      "name": "residence district",
      "tags": {
        "maxspeed": "25 mph"
      }
    },
    {
      "filter": "{is_business_district}",
      "name": "business district",
      "tags": {
        "maxspeed": "25 mph"
      }
    },
    {
      "tags": {
        "maxspeed": "65 mph"
      }
    }
  ],
  "US-CA": [
    {
      "filter": "highway=service and width<=7.6",
      "name": "California: alley",
      "tags": {
        "maxspeed": "15 mph"
      }
    },
    {
      "filter": "{is_residential_district}",
      "name": "residence district",
      "tags": {
        "maxspeed": "25 mph"
      }
    },
    {
      "filter": "{is_business_district}",
      "name": "business district",
      "tags": {
        "maxspeed": "25 mph"
      }
    },
    {
      "tags": {
        "maxspeed": "55 mph",
        "maxspeed:conditional": "55 mph @ (trailer)",
        "maxspeed:hgv:conditional": "55 mph @ (articulated)"
      }
    },
    {
      "filter": "(oneway~^yes|-1$ and lanes>=2) or lanes>=4",
      "name": "road with 2 or more lanes in each direction",
      "tags": {
        "maxspeed": "55 mph",
        "maxspeed:conditional": "55 mph @ (trailer)",
        "maxspeed:hgv:conditional": "55 mph @ (articulated)"
      }
    }
  ],
  "US-CO": [
    {
      "filter": "{is_business_district}",
      "name": "business district",
      "tags": {
        "maxspeed": "25 mph"
      }
    },
    {
      "filter": "{is_residential_district}",
      "name": "residence district",
      "tags": {
        "maxspeed": "30 mph"
      }
    },
    {
      "tags": {
        "maxspeed": "55 mph"
      }
    },
    {
      "filter": "ref~^I and highway~^motorway|motorway_link$",
      "name": "US interstate highway",
      "tags": {
        "maxspeed": "65 mph"
      }
    },
    {
      "filter": "highway~^trunk(_link)?$",
      "name": "trunk",
      "tags": {
        "maxspeed": "65 mph"
      }
    },
    {
      "filter": "highway~^motorway(_link)?$",
      "name": "motorway",
      "tags": {
        "maxspeed": "65 mph"
      }
    }
  ],
  "US-CT": [
    {
      "tags": {
        "maxspeed": "40 mph"
      }
    },
    {
      "filter": "highway~^motorway(_link)?$",
      "name": "motorway",
      "tags": {
        "maxspeed": "50 mph"
      }
    }
  ],
  "US-DC": [
    {
      "filter": "{is_school_zone}",
      "name": "school zone",
      "tags": {
        "maxspeed": "15 mph"
      }
    },
    {
      "filter": "highway=service and width<=9.1",
      "name": "District of Columbia: alley",
      "tags": {
        "maxspeed": "15 mph"
      }
    },
    {
      "tags": {
        "maxspeed": "25 mph"
      }
    }
  ],
  "US-DE": [
    {
      "filter": "{is_residential_district}",
      "name": "residence district",
      "tags": {
        "maxspeed": "25 mph"
      }
    },
    {
      "filter": "{is_business_district}",
      "name": "business district",
      "tags": {
        "maxspeed": "25 mph"
      }
    },
    {
      "tags": {
        "maxspeed": "50 mph"
      }
    },
    {
      "filter": "oneway!~^yes|-1$ and lanes>=4",
      "name": "single carriageway with 2 or more lanes in each direction",
      "tags": {
        "maxspeed": "55 mph"
      }
    },
    {
      "filter": "oneway~^yes|-1$ and dual_carriageway!=no",
      "name": "dual carriageway",
      "tags": {
        "maxspeed": "55 mph"
      }
    }
  ],
  "US-FL": [
    {
      "filter": "{is_residential_district}",
      "name": "residence district",
      "tags": {
        "maxspeed": "30 mph"
      }
    },
    {
      "filter": "{is_business_district}",
      "name": "business district",
      "tags": {
        "maxspeed": "30 mph"
      }
    },
    {
      "tags": {
        "maxspeed": "55 mph"
      }
    },
    {
      "filter": "oneway~^yes|-1$ and lanes>=2 and dual_carriageway!=no",
      "name": "dual carriageway with 2 or more lanes in each direction",
      "tags": {
        "maxspeed": "65 mph"
      }
    },
    {
      "filter": "highway~^motorway(_link)?$",
      "name": "motorway",
      "tags": {
        "maxspeed": "70 mph"
      }
    }
  ],
  "US-GA": [
    {
      "filter": "{is_urban}",
      "name": "urban",
      "tags": {
        "maxspeed": "30 mph"
      }
    },
    {
      "filter": "surface~^unpaved|ground|gravel|dirt|grass|compacted|sand|fine_gravel|earth|pebblestone|mud|clay|soil|rock$",
      "name": "unpaved road",
      "tags": {
        "maxspeed": "35 mph"
      }
    },
    {
      "tags": {
        "maxspeed": "40 mph"
      }
    },
    {
      "filter": "ref~^GA|SR and oneway~^yes|-1$ and dual_carriageway!=no",
      "name": "Georgia state highway with dual carriageway",
      "tags": {
        "maxspeed": "65 mph"
      }
    },
    {
      "filter": "ref~^I and highway~^motorway|motorway_link$",
      "name": "US interstate highway",
      "tags": {
        "maxspeed": "55 mph"
      }
    }
  ],
  "US-HI": [
    {
      "tags": {}
    }
  ],
  "US-IA": [
    {
      "filter": "{is_business_district}",
      "name": "business district",
      "tags": {
        "maxspeed": "20 mph"
      }
    },
    {
      "filter": "{is_school_zone}",
      "name": "school zone",
      "tags": {
        "maxspeed": "25 mph"
      }
    },
    {
      "filter": "{is_residential_district}",
      "name": "residence district",
      "tags": {
        "maxspeed": "25 mph"
      }
    },
    {
      "filter": "surface!~^asphalt|concrete$",
      "name": "road without asphalt or concrete surface",
      "tags": {
        "maxspeed": "55 mph",
        "maxspeed:conditional": "50 mph @ (sunset-sunrise)"
      }
    },
    {
      "tags": {
        "maxspeed": "55 mph"
      }
    },
    {
      "filter": "highway~^motorway(_link)?$",
      "name": "motorway",
      "tags": {
        "maxspeed": "65 mph"
      }
    },
    {
      "filter": "ref~^I and highway~^motorway|motorway_link$",
      "name": "US interstate highway",
      "tags": {
        "maxspeed": "70 mph"
      }
    }
  ],
  "US-ID": [
    {
      "filter": "{is_urban}",
      "name": "urban",
      "tags": {
        "maxspeed": "35 mph"
      }
    },
    {
      "tags": {
        "maxspeed": "55 mph"
      }
    },
    {
      "filter": "ref~^ID|SH",
      "name": "Idaho state highway",
      "tags": {
        "maxspeed": "65 mph"
      }
    },
    {
      "filter": "ref~^I and highway~^motorway|motorway_link$",
      "name": "US interstate highway",
      "tags": {
        "maxspeed": "75 mph",
        "maxspeed:hgv:conditional": "65 mph @ (axles>=5 AND weightrating>11.793)"
      }
    }
  ],
  "US-IL": [
    {
      "filter": "highway=service and service=alley",
      "name": "alley",
      "tags": {
        "maxspeed": "15 mph"
      }
    },
    {
      "filter": "{is_urban}",
      "name": "urban",
      "tags": {
        "maxspeed": "30 mph"
      }
    },
    {
      "tags": {
        "maxspeed": "55 mph"
      }
    },
    {
      "filter": "oneway~^yes|-1$ and lanes>=2 and dual_carriageway!=no",
      "name": "dual carriageway with 2 or more lanes in each direction",
      "tags": {
        "maxspeed": "65 mph"
      }
    },
    {
      "filter": "ref~^I and highway~^motorway|motorway_link$",
      "name": "US interstate highway",
      "tags": {
        "maxspeed": "70 mph"
      }
    }
  ],
  "US-IN": [
    {
      "filter": "highway=service and service=alley",
      "name": "alley",
      "tags": {
        "maxspeed": "15 mph"
      }
    },
    {
      "filter": "{is_urban}",
      "name": "urban",
      "tags": {
        "maxspeed": "30 mph"
      }
    },
    {
      "tags": {
        "maxspeed": "40 mph",
        "maxspeed:conditional": "55 mph @ (length>26)"
      }
    },
    {
      "filter": "(oneway~^yes|-1$ and lanes>=2) or lanes>=4",
      "name": "road with 2 or more lanes in each direction",
      "tags": {
        "maxspeed": "60 mph",
        "maxspeed:conditional": "55 mph @ (length>26)"
      }
    },
    {
      "filter": "ref",
      "name": "numbered road",
      "tags": {
        "maxspeed": "60 mph"
      }
    },
    {
      "filter": "ref~^I and highway~^motorway|motorway_link$",
      "name": "US interstate highway",
      "tags": {
        "maxspeed": "70 mph",
        "maxspeed:conditional": "65 mph @ (weightrating>11.793); 55 mph @ (length>26)",
        "maxspeed:hgv:conditional": "65 mph @ (weightrating>11.793); 55 mph @ (length>26)"
      }
    }
  ],
  "US-KS": [
    {
      "filter": "{is_urban}",
      "name": "urban",
      "tags": {
        "maxspeed": "30 mph"
      }
    },
    {
      "tags": {
        "maxspeed": "65 mph",
        "maxspeed:conditional": "55 mph @ (caravan)"
      }
    },
    {
      "filter": "oneway~^yes|-1$ and dual_carriageway!=no",
      "name": "dual carriageway",
      "tags": {
        "maxspeed": "75 mph",
        "maxspeed:conditional": "55 mph @ (caravan)"
      }
    }
  ],
  "US-KY": [
    {
      "filter": "{is_residential_district}",
      "name": "residence district",
      "tags": {
        "maxspeed": "35 mph"
      }
    },
    {
      "filter": "{is_business_district}",
      "name": "business district",
      "tags": {
        "maxspeed": "35 mph"
      }
    },
    {
      "tags": {
        "maxspeed": "55 mph"
      }
    },
    {
      "filter": "ref~^I and highway~^motorway|motorway_link$",
      "name": "US interstate highway",
      "tags": {
        "maxspeed": "65 mph"
      }
    }
  ],
  "US-LA": [
    {
      "tags": {
        "maxspeed": "55 mph"
      }
    },
    {
      "filter": "oneway~^yes|-1$ and lanes>=2 and dual_carriageway!=no",
      "name": "dual carriageway with 2 or more lanes in each direction",
      "tags": {
        "maxspeed": "65 mph"
      }
    },
    {
      "filter": "ref~^I and highway~^motorway|motorway_link$",
      "name": "US interstate highway",
      "tags": {
        "maxspeed": "70 mph"
      }
    },
    {
      "filter": "highway~^motorway(_link)?$",
      "name": "motorway",
      "tags": {
        "maxspeed": "70 mph"
      }
    }
  ],
  "US-MA": [
    {
      "filter": "{is_school_zone}",
      "name": "school zone",
      "tags": {
        "maxspeed": "20 mph"
      }
    },
    {
      "filter": "{is_business_district}",
      "name": "business district",
      "tags": {
        "maxspeed": "30 mph"
      }
    },
    {
      "filter": "{is_residential_district}",
      "name": "residence district",
      "tags": {
        "maxspeed": "30 mph"
      }
    },
    {
      "tags": {
        "maxspeed": "40 mph"
      }
    },
    {
      "filter": "oneway~^yes|-1$ and dual_carriageway!=no",
      "name": "dual carriageway",
      "tags": {
        "maxspeed": "50 mph"
      }
    }
  ],
  "US-MD": [
    {
      "filter": "{is_school_zone}",
      "name": "school zone",
      "tags": {
        "maxspeed": "15 mph"
      }
    },
    {
      "filter": "{is_business_district}",
      "name": "business district",
      "tags": {
        "maxspeed": "30 mph"
      }
    },
    {
      "filter": "{is_residential_district} and (oneway!~^yes|-1$ or dual_carriageway=no)",
      "name": "single carriageway in residence district",
      "tags": {
        "maxspeed": "30 mph"
      }
    },
    {
      "filter": "{is_residential_district} and oneway~^yes|-1$ and dual_carriageway!=no",
      "name": "dual carriageway in residence district",
      "tags": {
        "maxspeed": "35 mph"
      }
    },
    {
      "tags": {
        "maxspeed": "50 mph"
      }
    },
    {
      "filter": "oneway~^yes|-1$ and dual_carriageway!=no",
      "name": "dual carriageway",
      "tags": {
        "maxspeed": "55 mph"
      }
    }
  ],
  "US-ME": [
    {
      "filter": "{is_school_zone}",
      "name": "school zone",
      "tags": {
        "maxspeed": "15 mph"
      }
    },
    {
      "filter": "{is_urban}",
      "name": "urban",
      "tags": {
        "maxspeed": "25 mph"
      }
    },
    {
      "tags": {
        "maxspeed": "45 mph"
      }
    }
  ],
  "US-MI": [
    {
      "filter": "{is_business_district}",
      "name": "business district",
      "tags": {
        "maxspeed": "25 mph"
      }
    },
    {
      "filter": "{is_residential_district}",
      "name": "residence district",
      "tags": {
        "maxspeed": "25 mph"
      }
    },
    {
      "filter": "surface~^unpaved|ground|gravel|dirt|grass|compacted|sand|fine_gravel|earth|pebblestone|mud|clay|soil|rock$",
      "name": "unpaved road",
      "tags": {
        "maxspeed": "55 mph"
      }
    },
    {
      "tags": {
        "maxspeed": "55 mph"
      }
    },
    {
      "filter": "highway~^motorway(_link)?$",
      "name": "motorway",
      "tags": {
        "maxspeed": "70 mph",
        "maxspeed:hgv:conditional": "65 mph @ (weightrating>4.536); 65 mph @ (trailer); 65 mph @ (articulated)"
      }
    }
  ],
  "US-MN": [
    {
      "filter": "highway=service and service=alley",
      "name": "alley",
      "tags": {
        "maxspeed": "10 mph"
      }
    },
    {
      "filter": "{is_school_zone}",
      "name": "school zone",
      "tags": {
        "maxspeed": "15 mph"
      }
    },
    {
      "filter": "{is_urban}",
      "name": "urban",
      "tags": {
        "maxspeed": "30 mph"
      }
    },
    {
      "filter": "{is_urban} and ref~^I and highway~^motorway|motorway_link$",
      "name": "US urban interstate highway",
      "tags": {
        "maxspeed": "65 mph"
      }
    },
    {
      "tags": {
        "maxspeed": "55 mph"
      }
    },
    {
      "filter": "highway~^trunk(_link)?$",
      "name": "trunk",
      "tags": {
        "maxspeed": "65 mph"
      }
    },
    {
      "filter": "highway~^motorway(_link)?$",
      "name": "motorway",
      "tags": {
        "maxspeed": "65 mph"
      }
    },
    {
      "filter": "ref~^I and highway~^motorway|motorway_link$",
      "name": "US interstate highway",
      "tags": {
        "maxspeed": "70 mph"
      }
    }
  ],
  "US-MO": [
    {
      "filter": "{is_urban} and oneway~^yes|-1$ and lanes>=2 and dual_carriageway!=no",
      "name": "urban dual carriageway with 2 or more lanes in each direction",
      "tags": {
        "maxspeed": "60 mph"
      }
    },
    {
      "filter": "{is_urban} and highway~^motorway(_link)?$",
      "name": "urban motorway",
      "tags": {
        "maxspeed": "60 mph"
      }
    },
    {
      "filter": "{is_urban} and ref~^I and highway~^motorway|motorway_link$",
      "name": "US urban interstate highway",
      "tags": {
        "maxspeed": "60 mph"
      }
    },
    {
      "filter": "ref and lanes>=2",
      "name": "numbered road with 2 lanes",
      "tags": {
        "maxspeed": "55 mph"
      }
    },
    {
      "tags": {
        "maxspeed": "60 mph"
      }
    },
    {
      "filter": "oneway~^yes|-1$ and lanes>=2 and dual_carriageway!=no",
      "name": "dual carriageway with 2 or more lanes in each direction",
      "tags": {
        "maxspeed": "65 mph"
      }
    },
    {
      "filter": "ref~^I and highway~^motorway|motorway_link$",
      "name": "US interstate highway",
      "tags": {
        "maxspeed": "70 mph"
      }
    },
    {
      "filter": "highway~^motorway(_link)?$",
      "name": "motorway",
      "tags": {
        "maxspeed": "70 mph"
      }
    }
  ],
  "US-MS": [
    {
      "tags": {
        "maxspeed": "65 mph"
      }
    }
  ],
  "US-MT": [
    {
      "filter": "{is_urban}",
      "name": "urban",
      "tags": {
        "maxspeed": "25 mph"
      }
    },
    {
      "tags": {
        "maxspeed": "60 mph",
        "maxspeed:conditional": "65 mph @ ((sunset+01:30)-(sunrise-01:30))",
        "maxspeed:hgv:conditional": "55 mph @ ((sunset+01:30)-(sunrise-01:30))"
      }
    },
    {
      "filter": "ref~^I and highway~^motorway|motorway_link$",
      "name": "US interstate highway",
      "tags": {
        "maxspeed": "65 mph"
      }
    }
  ],
  "US-NC": [
    {
      "filter": "{is_urban}",
      "name": "urban",
      "tags": {
        "maxspeed": "35 mph"
      }
    },
    {
      "tags": {
        "maxspeed": "55 mph"
      }
    }
  ],
  "US-ND": [
    {
      "filter": "{is_urban}",
      "name": "urban",
      "tags": {
        "maxspeed": "25 mph"
      }
    },
    {
      "tags": {
        "maxspeed": "55 mph"
      }
    },
    {
      "filter": "oneway~^yes|-1$ and dual_carriageway!=no",
      "name": "dual carriageway",
      "tags": {
        "maxspeed": "70 mph"
      }
    },
    {
      "filter": "ref~^I and highway~^motorway|motorway_link$",
      "name": "US interstate highway",
      "tags": {
        "maxspeed": "75 mph"
      }
    }
  ],
  "US-NE": [
    {
      "filter": "{is_business_district}",
      "name": "business district",
      "tags": {
        "maxspeed": "20 mph"
      }
    },
    {
      "filter": "{is_residential_district}",
      "name": "residence district",
      "tags": {
        "maxspeed": "25 mph"
      }
    },
    {
      "filter": "surface~^unpaved|ground|gravel|dirt|grass|compacted|sand|fine_gravel|earth|pebblestone|mud|clay|soil|rock$",
      "name": "unpaved road",
      "tags": {
        "maxspeed": "50 mph"
      }
    },
    {
      "tags": {
        "maxspeed": "55 mph",
        "maxspeed:conditional": "50 mph @ (caravan)"
      }
    },
    {
      "filter": "ref~^N-|NE",
      "name": "Nebraska state highway",
      "tags": {
        "maxspeed": "60 mph",
        "maxspeed:conditional": "50 mph @ (caravan)"
      }
    },
    {
      "filter": "ref~^N-|NE and highway~^trunk|trunk_link$",
      "name": "Nebraska state expressway",
      "tags": {
        "maxspeed": "65 mph",
        "maxspeed:conditional": "50 mph @ (caravan)"
      }
    },
    {
      "filter": "highway~^motorway(_link)?$",
      "name": "motorway",
      "tags": {
        "maxspeed": "65 mph",
        "maxspeed:conditional": "50 mph @ (caravan)"
      }
    },
    {
      "filter": "ref~^I and highway~^motorway|motorway_link$",
      "name": "US interstate highway",
      "tags": {
        "maxspeed": "75 mph",
        "maxspeed:conditional": "50 mph @ (caravan)"
      }
    }
  ],
  "US-NH": [
    {
      "filter": "{is_school_zone} and {is_urban}",
      "name": "urban school zone",
      "tags": {
        "maxspeed": "20 mph"
      }
    },
    {
      "filter": "{is_school_zone} and !{is_urban}",
      "name": "rural school zone",
      "tags": {
        "maxspeed": "25 mph"
      }
    },
    {
      "filter": "{is_business_district}",
      "name": "business district",
      "tags": {
        "maxspeed": "30 mph"
      }
    },
    {
      "filter": "{is_residential_district} and {is_urban}",
      "name": "urban residential district",
      "tags": {
        "maxspeed": "30 mph"
      }
    },
    {
      "filter": "{is_residential_district} and\u00a0!{is_urban}",
      "name": "non-urban residential district",
      "tags": {
        "maxspeed": "35 mph"
      }
    },
    {
      "filter": "{is_urban}",
      "name": "urban",
      "tags": {
        "maxspeed": "35 mph"
      }
    },
    {
      "tags": {
        "maxspeed": "55 mph",
        "maxspeed:conditional": "45 mph @ (caravan)"
      }
    },
    {
      "filter": "oneway~^yes|-1$ and lanes>=2 and dual_carriageway!=no",
      "name": "dual carriageway with 2 or more lanes in each direction",
      "tags": {
        "maxspeed": "65 mph",
        "maxspeed:conditional": "45 mph @ (caravan)"
      }
    },
    {
      "filter": "ref~^I and highway~^motorway|motorway_link$",
      "name": "US interstate highway",
      "tags": {
        "maxspeed": "65 mph",
        "maxspeed:conditional": "45 mph @ (caravan)"
      }
    }
  ],
  "US-NJ": [
    {
      "filter": "{is_school_zone}",
      "name": "school zone",
      "tags": {
        "maxspeed": "20 mph"
      }
    },
    {
      "filter": "{is_business_district} and {is_urban}",
      "name": "urban business district",
      "tags": {
        "maxspeed": "25 mph"
      }
    },
    {
      "filter": "{is_residential_district} and {is_urban}",
      "name": "urban residential district",
      "tags": {
        "maxspeed": "25 mph"
      }
    },
    {
      "tags": {
        "maxspeed": "50 mph"
      }
    }
  ],
  "US-NM": [
    {
      "filter": "{is_school_zone}",
      "name": "school zone",
      "tags": {
        "maxspeed": "15 mph"
      }
    },
    {
      "filter": "{is_residential_district}",
      "name": "residence district",
      "tags": {
        "maxspeed": "30 mph"
      }
    },
    {
      "filter": "{is_business_district}",
      "name": "business district",
      "tags": {
        "maxspeed": "30 mph"
      }
    },
    {
      "tags": {
        "maxspeed": "55 mph"
      }
    }
  ],
  "US-NV": [
    {
      "filter": "{is_school_zone}",
      "name": "school zone",
      "tags": {
        "maxspeed": "25 mph"
      }
    },
    {
      "tags": {
        "maxspeed": "55 mph"
      }
    }
  ],
  "US-NY": [
    {
      "tags": {
        "maxspeed": "55 mph",
        "maxspeed:hgv:conditional": "55 mph @ (weightrating>4.536)"
      }
    }
  ],
  "US-OH": [
    {
      "filter": "highway=service and service=alley",
      "name": "alley",
      "tags": {
        "maxspeed": "15 mph"
      }
    },
    {
      "filter": "{is_urban}",
      "name": "urban",
      "tags": {
        "maxspeed": "25 mph"
      }
    },
    {
      "filter": "ref~^SR and {is_urban}",
      "name": "Ohio urban state route",
      "tags": {
        "maxspeed": "35 mph"
      }
    },
    {
      "filter": "{is_urban} and highway~^motorway(_link)?$",
      "name": "urban motorway",
      "tags": {
        "maxspeed": "50 mph"
      }
    },
    {
      "filter": "{is_urban} and highway~^motorway(_link)?$ and shoulders~^yes|both|left|right$",
      "name": "urban motorway with paved shoulders",
      "tags": {
        "maxspeed": "55 mph"
      }
    },
    {
      "tags": {
        "maxspeed": "55 mph"
      }
    },
    {
      "filter": "ref~^SR",
      "name": "Ohio state route",
      "tags": {
        "maxspeed": "50 mph"
      }
    },
    {
      "filter": "oneway~^yes|-1$ and dual_carriageway!=no",
      "name": "dual carriageway",
      "tags": {
        "maxspeed": "60 mph"
      }
    },
    {
      "filter": "highway~^motorway(_link)?$",
      "name": "motorway",
      "tags": {
        "maxspeed": "70 mph"
      }
    }
  ],
  "US-OK": [
    {
      "filter": "{is_school_zone}",
      "name": "school zone",
      "tags": {
        "maxspeed": "25 mph"
      }
    },
    {
      "tags": {
        "maxspeed": "55 mph"
      }
    }
  ],
  "US-OR": [
    {
      "filter": "highway=service and service=alley",
      "name": "alley",
      "tags": {
        "maxspeed": "15 mph"
      }
    },
    {
      "filter": "{is_school_zone}",
      "name": "school zone",
      "tags": {
        "maxspeed": "20 mph"
      }
    },
    {
      "filter": "{is_business_district}",
      "name": "business district",
      "tags": {
        "maxspeed": "20 mph"
      }
    },
    {
      "filter": "{is_residential_district}",
      "name": "residence district",
      "tags": {
        "maxspeed": "25 mph"
      }
    },
    {
      "tags": {
        "maxspeed": "55 mph"
      }
    },
    {
      "filter": "ref~^I and highway~^motorway|motorway_link$",
      "name": "US interstate highway",
      "tags": {
        "maxspeed": "55 mph",
        "maxspeed:hgv:conditional": "55 mph @ (weightrating>3.629 AND articulated); 55 mph @ (weightrating>4.536)"
      }
    }
  ],
  "US-PA": [
    {
      "filter": "{is_school_zone}",
      "name": "school zone",
      "tags": {
        "maxspeed": "15 mph"
      }
    },
    {
      "filter": "{is_urban} and !ref",
      "name": "urban road which is not numbered",
      "tags": {
        "maxspeed": "25 mph"
      }
    },
    {
      "filter": "{is_urban}",
      "name": "urban",
      "tags": {
        "maxspeed": "35 mph"
      }
    },
    {
      "tags": {
        "maxspeed": "55 mph"
      }
    }
  ],
  "US-RI": [
    {
      "filter": "{is_school_zone}",
      "name": "school zone",
      "tags": {
        "maxspeed": "20 mph"
      }
    },
    {
      "filter": "{is_business_district}",
      "name": "business district",
      "tags": {
        "maxspeed": "25 mph"
      }
    },
    {
      "filter": "{is_residential_district}",
      "name": "residence district",
      "tags": {
        "maxspeed": "25 mph"
      }
    },
    {
      "tags": {
        "maxspeed": "50 mph",
        "maxspeed:conditional": "45 mph @ ((sunset+0:30)-(sunrise-0:30))"
      }
    }
  ],
  "US-SC": [
    {
      "filter": "{is_urban}",
      "name": "urban",
      "tags": {
        "maxspeed": "30 mph"
      }
    },
    {
      "filter": "surface~^unpaved|ground|gravel|dirt|grass|compacted|sand|fine_gravel|earth|pebblestone|mud|clay|soil|rock$",
      "name": "unpaved road",
      "tags": {
        "maxspeed": "40 mph"
      }
    },
    {
      "tags": {
        "maxspeed": "55 mph",
        "maxspeed:conditional": "45 mph @ (caravan)"
      }
    }
  ],
  "US-SD": [
    {
      "filter": "{is_school_zone}",
      "name": "school zone",
      "tags": {
        "maxspeed": "15 mph"
      }
    },
    {
      "filter": "{is_urban}",
      "name": "urban",
      "tags": {
        "maxspeed": "25 mph"
      }
    },
    {
      "tags": {
        "maxspeed": "65 mph",
        "maxspeed:conditional": "45 mph @ (caravan)"
      }
    },
    {
      "filter": "ref~^I and highway~^motorway|motorway_link$",
      "name": "US interstate highway",
      "tags": {
        "maxspeed": "80 mph",
        "maxspeed:conditional": "55 mph @ (caravan)"
      }
    }
  ],
  "US-TN": [
    {
      "filter": "{is_school_zone}",
      "name": "school zone",
      "tags": {
        "maxspeed": "15 mph"
      }
    },
    {
      "tags": {
        "maxspeed": "65 mph"
      }
    },
    {
      "filter": "ref~^I and highway~^motorway|motorway_link$ and (lanes>=2 and oneway~^yes|-1$) or lanes>=4",
      "name": "US interstate highway with 2 or more lanes in each direction",
      "tags": {
        "maxspeed": "70 mph"
      }
    }
  ],
  "US-TX": [
    {
      "filter": "highway=service and service=alley",
      "name": "alley",
      "tags": {
        "maxspeed": "15 mph"
      }
    },
    {
      "filter": "{is_urban}",
      "name": "urban",
      "tags": {
        "maxspeed": "30 mph"
      }
    },
    {
      "tags": {
        "maxspeed": "55 mph",
        "maxspeed:conditional": "55 mph @ (caravan)"
      }
    },
    {
      "filter": "ref",
      "name": "numbered road",
      "tags": {
        "maxspeed": "55 mph",
        "maxspeed:conditional": "55 mph @ (caravan)"
      }
    }
  ],
  "US-UT": [
    {
      "filter": "{is_school_zone}",
      "name": "school zone",
      "tags": {
        "maxspeed": "20 mph"
      }
    },
    {
      "filter": "{is_urban}",
      "name": "urban",
      "tags": {
        "maxspeed": "25 mph"
      }
    },
    {
      "tags": {
        "maxspeed": "55 mph"
      }
    },
    {
      "tags": {}
    }
  ],
  "US-VA": [
    {
      "filter": "{is_school_zone}",
      "name": "school zone",
      "tags": {
        "maxspeed": "25 mph"
      }
    },
    {
      "filter": "{is_business_district}",
      "name": "business district",
      "tags": {
        "maxspeed": "25 mph"
      }
    },
    {
      "filter": "{is_residential_district}",
      "name": "residence district",
      "tags": {
        "maxspeed": "25 mph"
      }
    },
    {
      "filter": "surface~^unpaved|ground|gravel|dirt|grass|compacted|sand|fine_gravel|earth|pebblestone|mud|clay|soil|rock$",
      "name": "unpaved road",
      "tags": {
        "maxspeed": "35 mph"
      }
    },
    {
      "filter": "{is_urban}",
      "name": "urban",
      "tags": {
        "maxspeed": "35 mph"
      }
    },
    {
      "tags": {
        "maxspeed": "45 mph",
        "maxspeed:conditional": "45 mph @ (caravan)",
        "maxspeed:goods:conditional": "45 mph @ (weightrating>3.402); 45 mph @ (trailer); 45 mph @ (articulated)"
      }
    },
    {
      "filter": "ref~^US|SR",
      "name": "Virginia state primary highway",
      "tags": {
        "maxspeed": "55 mph"
      }
    },
    {
      "filter": "(oneway~^yes|-1$ and lanes>=2) or lanes>=4",
      "name": "road with 2 or more lanes in each direction",
      "tags": {
        "maxspeed": "55 mph"
      }
    },
    {
      "filter": "highway~^motorway(_link)?$",
      "name": "motorway",
      "tags": {
        "maxspeed": "55 mph"
      }
    },
    {
      "filter": "ref~^I and highway~^motorway|motorway_link$",
      "name": "US interstate highway",
      "tags": {
        "maxspeed": "55 mph"
      }
    }
  ],
  "US-VT": [
    {
      "tags": {
        "maxspeed": "50 mph"
      }
    }
  ],
  "US-WA": [
    {
      "filter": "{is_urban}",
      "name": "urban",
      "tags": {
        "maxspeed": "25 mph"
      }
    },
    {
      "tags": {
        "maxspeed": "50 mph"
      }
    },
    {
      "filter": "ref~^WA|SR",
      "name": "Washington state highway",
      "tags": {
        "maxspeed": "60 mph",
        "maxspeed:conditional": "60 mph @ (weightrating>4.536); 60 mph @ (trailer); 60 mph @ (caravan); 60 mph @ (articulated)"
      }
    }
  ],
  "US-WI": [
    {
      "filter": "{is_school_zone}",
      "name": "school zone",
      "tags": {
        "maxspeed": "15 mph"
      }
    },
    {
      "filter": "highway=service and service=alley",
      "name": "alley",
      "tags": {
        "maxspeed": "15 mph"
      }
    },
    {
      "filter": "{is_urban}",
      "name": "urban",
      "tags": {
        "maxspeed": "25 mph"
      }
    },
    {
      "filter": "ref~^R",
      "name": "Wisconsin rustic road",
      "tags": {
        "maxspeed": "40 mph"
      }
    },
    {
      "tags": {
        "maxspeed": "55 mph"
      }
    },
    {
      "filter": "oneway~^yes|-1$ and lanes>=2 and dual_carriageway!=no",
      "name": "dual carriageway with 2 or more lanes in each direction",
      "tags": {
        "maxspeed": "65 mph"
      }
    },
    {
      "filter": "highway~^motorway(_link)?$",
      "name": "motorway",
      "tags": {
        "maxspeed": "70 mph"
      }
    }
  ],
  "US-WV": [
    {
      "filter": "{is_school_zone}",
      "name": "school zone",
      "tags": {
        "maxspeed": "15 mph"
      }
    },
    {
      "filter": "{is_business_district}",
      "name": "business district",
      "tags": {
        "maxspeed": "25 mph"
      }
    },
    {
      "filter": "{is_residential_district}",
      "name": "residence district",
      "tags": {
        "maxspeed": "25 mph"
      }
    },
    {
      "tags": {
        "maxspeed": "55 mph"
      }
    }
  ],
  "US-WY": [
    {
      "filter": "{is_urban}",
      "name": "urban",
      "tags": {
        "maxspeed": "30 mph"
      }
    },
    {
      "filter": "surface!~^asphalt|concrete$",
      "name": "road without asphalt or concrete surface",
      "tags": {
        "maxspeed": "55 mph"
      }
    },
    {
      "tags": {
        "maxspeed": "65 mph"
      }
    },
    {
      "filter": "ref~^WYO?",
      "name": "Wyoming state highway",
      "tags": {
        "maxspeed": "70 mph"
      }
    },
    {
      "filter": "ref~^I and highway~^motorway|motorway_link$",
      "name": "US interstate highway",
      "tags": {
        "maxspeed": "75 mph"
      }
    }
  ],
  "VE": [
    {
      "filter": "{is_urban}",
      "name": "urban",
      "tags": {
        "maxspeed": "40"
      }
    },
    {
      "tags": {
        "maxspeed": "70",
        "maxspeed:conditional": "50 @ (sunset-sunrise)"
      }
    },
    {
      "filter": "highway~^motorway(_link)?$",
      "name": "motorway",
      "tags": {
        "maxspeed": "90",
        "maxspeed:lanes": "90|70"
      }
    }
  ],
  "VI": [
    {
      "filter": "{is_urban}",
      "name": "urban",
      "tags": {
        "maxspeed": "10 mph"
      }
    },
    {
      "tags": {
        "maxspeed": "30 mph"
      }
    }
  ],
  "VN": [
    {
      "filter": "{is_urban} and oneway!~^yes|-1$",
      "name": "urban two-way single carriageway",
      "tags": {
        "maxspeed": "50"
      }
    },
    {
      "filter": "{is_urban} and oneway~^yes|-1$ and lanes=1",
      "name": "urban one-way road with 1 lane",
      "tags": {
        "maxspeed": "50"
      }
    },
    {
      "filter": "{is_urban} and oneway~^yes|-1$ and dual_carriageway!=no and lanes>=2 and highway!=motorway",
      "name": "urban dual carriageway with 2 or more lanes in each direction except motorways",
      "tags": {
        "maxspeed": "60"
      }
    },
    {
      "filter": "!{is_urban} and oneway!~^yes|-1$",
      "name": "rural two-way single carriageway",
      "tags": {
        "maxspeed": "60",
        "maxspeed:conditional": "50 @ (trailer)",
        "maxspeed:goods:conditional": "60 @ (trailer)",
        "maxspeed:hgv:conditional": "70 @ (weightcapacity>3.5)"
      }
    },
    {
      "filter": "!{is_urban} and oneway~^yes|-1$ and lanes=1",
      "name": "rural one-way road with 1 lane",
      "tags": {
        "maxspeed": "60",
        "maxspeed:conditional": "50 @ (trailer)",
        "maxspeed:goods:conditional": "60 @ (trailer)",
        "maxspeed:hgv:conditional": "70 @ (weightcapacity>3.5)"
      }
    },
    {
      "filter": "!{is_urban} and oneway~^yes|-1$ and dual_carriageway!=no and lanes>=2 and highway!=motorway",
      "name": "rural dual carriageway with 2 or more lanes in each direction except motorways",
      "tags": {
        "maxspeed": "70",
        "maxspeed:conditional": "60 @ (trailer)",
        "maxspeed:goods:conditional": "70 @ (trailer)",
        "maxspeed:hgv:conditional": "80 @ (weightcapacity>3.5)"
      }
    },
    {
      "filter": "highway~^motorway(_link)?$",
      "name": "motorway",
      "tags": {
        "maxspeed": "120"
      }
    }
  ],
  "XK": [
    {
      "filter": "{is_urban}",
      "name": "urban",
      "tags": {
        "maxspeed": "50"
      }
    },
    {
      "tags": {
        "maxspeed": "70",
        "maxspeed:hgv:conditional": "70 @ (weightrating>7.5)"
      }
    },
    {
      "filter": "oneway~^yes|-1$ and dual_carriageway!=no",
      "name": "dual carriageway",
      "tags": {
        "maxspeed": "70",
        "maxspeed:bus:conditional": "80 @ (weightrating>12)",
        "maxspeed:conditional": "80 @ (caravan)",
        "maxspeed:hgv:conditional": "70 @ (weightrating>12)"
      }
    },
    {
      "filter": "motorroad=yes",
      "name": "motorroad",
      "tags": {
        "maxspeed": "70",
        "maxspeed:bus:conditional": "80 @ (weightrating>12)",
        "maxspeed:conditional": "80 @ (caravan)",
        "maxspeed:hgv:conditional": "70 @ (weightrating>12)"
      }
    },
    {
      "filter": "highway~^motorway(_link)?$",
      "name": "motorway",
      "tags": {
        "maxspeed": "70",
        "maxspeed:bus:conditional": "80 @ (weightrating>12)",
        "maxspeed:conditional": "80 @ (caravan)",
        "maxspeed:hgv:conditional": "70 @ (weightrating>12)"
      }
    }
  ],
  "ZA": [
    {
      "filter": "{is_urban}",
      "name": "urban",
      "tags": {
        "maxspeed": "60"
      }
    },
    {
      "tags": {
        "maxspeed": "100",
        "maxspeed:hgv:conditional": "80 @ (weightrating>9)"
      }
    },
    {
      "filter": "highway~^motorway(_link)?$",
      "name": "motorway",
      "tags": {
        "maxspeed": "100",
        "maxspeed:hgv:conditional": "80 @ (weightrating>9)"
      }
    }
  ],
  "ZM": [
    {
      "filter": "{is_urban}",
      "name": "urban",
      "tags": {
        "maxspeed": "50",
        "maxspeed:conditional": "40 @ (trailerweight>0.45); 40 @ (caravan); 40 @ (weightrating>2.275)",
        "maxspeed:goods:conditional": "40 @ (articulated)"
      }
    },
    {
      "filter": "surface!~^asphalt|concrete$",
      "name": "road without asphalt or concrete surface",
      "tags": {
        "maxspeed": "80",
        "maxspeed:bus:conditional": "65 @ (seats>=12); 65 @ (articulated)",
        "maxspeed:conditional": "80 @ (trailer); 70 @ (caravan); 55 @ (trailerweight>0.45); 55 @ (weightrating>2.275); 50 @ (weightrating>3.632)",
        "maxspeed:goods:conditional": "55 @ (articulated); 50 @ (weightrating>3.632 AND articulated)"
      }
    },
    {
      "tags": {
        "maxspeed": "80",
        "maxspeed:bus:conditional": "65 @ (seats>=12); 65 @ (articulated)",
        "maxspeed:conditional": "80 @ (trailer); 70 @ (caravan); 55 @ (trailerweight>0.45); 55 @ (weightrating>2.275); 50 @ (weightrating>3.632)",
        "maxspeed:goods:conditional": "55 @ (articulated); 50 @ (weightrating>3.632 AND articulated)"
      }
    }
  ]
}